<kml xmlns="http://www.opengis.net/kml/2.2" xmlns:atom="http://www.w3.org/2005/Atom" xmlns:gx="http://www.google.com/kml/ext/2.2">
  <Document>
    <Style id="QueryArea">
      <LineStyle>
        <color>ffc0c000</color>
        <width>3</width>
      </LineStyle>
      <PolyStyle>
        <color>80ffffaa</color>
      </PolyStyle>
    </Style>
    <Style id="F3548v21Accepted">
      <LineStyle>
        <color>ff00c000</color>
        <width>3</width>
      </LineStyle>
      <PolyStyle>
        <color>80c0c0c0</color>
      </PolyStyle>
    </Style>
    <Style id="F3548v21Activated">
      <LineStyle>
        <color>ff00c000</color>
        <width>3</width>
      </LineStyle>
      <PolyStyle>
        <color>8000ff00</color>
      </PolyStyle>
    </Style>
    <Style id="F3548v21Nonconforming">
      <LineStyle>
        <color>ff00ffff</color>
        <width>5</width>
      </LineStyle>
      <PolyStyle>
        <color>8000ffff</color>
      </PolyStyle>
    </Style>
    <Style id="F3548v21Contingent">
      <LineStyle>
        <color>ff0000ff</color>
        <width>5</width>
      </LineStyle>
      <PolyStyle>
        <color>80ff0000ff</color>
      </PolyStyle>
    </Style>
    <Style id="F3548v21AcceptedFuture">
      <LineStyle>
        <color>80c0c0c0</color>
        <width>1</width>
      </LineStyle>
      <PolyStyle>
        <color>00000000</color>
      </PolyStyle>
    </Style>
    <Style id="F3548v21ActivatedFuture">
      <LineStyle>
        <color>8040c040</color>
        <width>1</width>
      </LineStyle>
      <PolyStyle>
        <color>00000000</color>
      </PolyStyle>
    </Style>
    <Style id="F3548v21NonconformingFuture">
      <LineStyle>
        <color>8000ffff</color>
        <width>1</width>
      </LineStyle>
      <PolyStyle>
        <color>00000000</color>
      </PolyStyle>
    </Style>
    <Style id="F3548v21ContingentFuture">
      <LineStyle>
        <color>80ff0000ff</color>
        <width>1</width>
      </LineStyle>
      <PolyStyle>
        <color>00000000</color>
      </PolyStyle>
    </Style>
    <Style id="Planned_Nominal">
      <LineStyle>
        <color>ff00c000</color>
        <width>3</width>
      </LineStyle>
      <PolyStyle>
        <color>80808080</color>
      </PolyStyle>
    </Style>
    <Style id="InUse_Nominal">
      <LineStyle>
        <color>ff00c000</color>
        <width>3</width>
      </LineStyle>
      <PolyStyle>
        <color>8000ff00</color>
      </PolyStyle>
    </Style>
    <Style id="InUse_OffNominal">
      <LineStyle>
        <color>ff00ffff</color>
        <width>5</width>
      </LineStyle>
      <PolyStyle>
        <color>8000ff00</color>
      </PolyStyle>
    </Style>
    <Style id="InUse_Contingent">
      <LineStyle>
        <color>ff0000ff</color>
        <width>5</width>
      </LineStyle>
      <PolyStyle>
        <color>8000ff00</color>
      </PolyStyle>
    </Style>
    <Style id="unmodifiedtelemetry">
      <IconStyle>
        <scale>1.4</scale>
        <Icon>
          <href>http://maps.google.com/mapfiles/kml/shapes/placemark_circle.png</href>
        </Icon>
      </IconStyle>
    </Style>
    <Style id="modifiedtelemetry">
      <IconStyle>
        <scale>1.4</scale>
        <Icon>
          <href>http://maps.google.com/mapfiles/kml/shapes/placemark_square.png</href>
        </Icon>
      </IconStyle>
    </Style>
    <Style id="aircraft">
      <IconStyle>
        <scale>1.4</scale>
        <Icon>
          <href>http://maps.google.com/mapfiles/kml/shapes/airports.png</href>
        </Icon>
      </IconStyle>
    </Style>
    <Folder>
      <name>Validation of operational intents</name>
      <Folder>
        <name>Attempt to plan invalid flights</name>
        <Folder>
          <name>Attempt to plan Too Far Away Flight</name>
          <Folder>
            <name>E2: uss1_dss astm.f3548.v21.dss.queryOperationalIntentReferences</name>
            <Placemark>
              <name>area_of_interest</name>
              <styleUrl>#QueryArea</styleUrl>
              <description><![CDATA[(no operational intent references found)]]></description>
              <TimeSpan>
                <begin>2026-06-22T14:56:07.501914+00:00</begin>
                <end>2026-06-22T15:41:07.501914+00:00</end>
              </TimeSpan>
              <MultiGeometry>
                <Polygon>
                  <altitudeMode>absolute</altitudeMode>
                  <outerBoundaryIs>
                    <LinearRing>
                      <coordinates>-96.759,32.7181,120.3179127798457 -96.759,32.71852,120.3179127798457 -96.75840000000001,32.71852,120.3179127798457 -96.75840000000001,32.7181,120.3179127798457</coordinates>
                    </LinearRing>
                  </outerBoundaryIs>
                </Polygon>
                <Polygon>
                  <altitudeMode>absolute</altitudeMode>
                  <outerBoundaryIs>
                    <LinearRing>
                      <coordinates>-96.759,32.7181,150.3179127798457 -96.759,32.71852,150.3179127798457 -96.75840000000001,32.71852,150.3179127798457 -96.75840000000001,32.7181,150.3179127798457</coordinates>
                    </LinearRing>
                  </outerBoundaryIs>
                </Polygon>
                <Polygon>
                  <altitudeMode>absolute</altitudeMode>
                  <outerBoundaryIs>
                    <LinearRing>
                      <coordinates>-96.759,32.7181,120.3179127798457 -96.759,32.7181,150.3179127798457 -96.759,32.71852,150.3179127798457 -96.759,32.71852,120.3179127798457</coordinates>
                    </LinearRing>
                  </outerBoundaryIs>
                </Polygon>
                <Polygon>
                  <altitudeMode>absolute</altitudeMode>
                  <outerBoundaryIs>
                    <LinearRing>
                      <coordinates>-96.759,32.71852,120.3179127798457 -96.759,32.71852,150.3179127798457 -96.75840000000001,32.71852,150.3179127798457 -96.75840000000001,32.71852,120.3179127798457</coordinates>
                    </LinearRing>
                  </outerBoundaryIs>
                </Polygon>
                <Polygon>
                  <altitudeMode>absolute</altitudeMode>
                  <outerBoundaryIs>
                    <LinearRing>
                      <coordinates>-96.75840000000001,32.71852,120.3179127798457 -96.75840000000001,32.71852,150.3179127798457 -96.75840000000001,32.7181,150.3179127798457 -96.75840000000001,32.7181,120.3179127798457</coordinates>
                    </LinearRing>
                  </outerBoundaryIs>
                </Polygon>
                <Polygon>
                  <altitudeMode>absolute</altitudeMode>
                  <outerBoundaryIs>
                    <LinearRing>
                      <coordinates>-96.75840000000001,32.7181,120.3179127798457 -96.75840000000001,32.7181,150.3179127798457 -96.759,32.7181,150.3179127798457 -96.759,32.7181,120.3179127798457</coordinates>
                    </LinearRing>
                  </outerBoundaryIs>
                </Polygon>
              </MultiGeometry>
            </Placemark>
          </Folder>
          <Folder>
            <name>E4: uss2_core interuss.automated_testing.flight_planning.v1.UpsertFlightPlan</name>
            <Folder>
              <name>Activity Rejected, flight NotPlanned</name>
              <Placemark>
                <name>Volume 0</name>
                <styleUrl>#Planned_Nominal</styleUrl>
                <TimeSpan>
                  <begin>2026-06-22T14:56:07.501914+00:00</begin>
                  <end>2026-06-22T15:41:07.501914+00:00</end>
                </TimeSpan>
                <MultiGeometry>
                  <Polygon>
                    <altitudeMode>absolute</altitudeMode>
                    <outerBoundaryIs>
                      <LinearRing>
                        <coordinates>-96.7587,32.7181,120.31786387683485 -96.759,32.71852,120.31786387683485 -96.75840000000001,32.71852,120.31786387683485</coordinates>
                      </LinearRing>
                    </outerBoundaryIs>
                  </Polygon>
                  <Polygon>
                    <altitudeMode>absolute</altitudeMode>
                    <outerBoundaryIs>
                      <LinearRing>
                        <coordinates>-96.7587,32.7181,150.31786387683485 -96.759,32.71852,150.31786387683485 -96.75840000000001,32.71852,150.31786387683485</coordinates>
                      </LinearRing>
                    </outerBoundaryIs>
                  </Polygon>
                  <Polygon>
                    <altitudeMode>absolute</altitudeMode>
                    <outerBoundaryIs>
                      <LinearRing>
                        <coordinates>-96.7587,32.7181,120.31786387683485 -96.7587,32.7181,150.31786387683485 -96.759,32.71852,150.31786387683485 -96.759,32.71852,120.31786387683485</coordinates>
                      </LinearRing>
                    </outerBoundaryIs>
                  </Polygon>
                  <Polygon>
                    <altitudeMode>absolute</altitudeMode>
                    <outerBoundaryIs>
                      <LinearRing>
                        <coordinates>-96.759,32.71852,120.31786387683485 -96.759,32.71852,150.31786387683485 -96.75840000000001,32.71852,150.31786387683485 -96.75840000000001,32.71852,120.31786387683485</coordinates>
                      </LinearRing>
                    </outerBoundaryIs>
                  </Polygon>
                  <Polygon>
                    <altitudeMode>absolute</altitudeMode>
                    <outerBoundaryIs>
                      <LinearRing>
                        <coordinates>-96.75840000000001,32.71852,120.31786387683485 -96.75840000000001,32.71852,150.31786387683485 -96.7587,32.7181,150.31786387683485 -96.7587,32.7181,120.31786387683485</coordinates>
                      </LinearRing>
                    </outerBoundaryIs>
                  </Polygon>
                </MultiGeometry>
              </Placemark>
            </Folder>
          </Folder>
          <Folder>
            <name>E7: uss1_dss astm.f3548.v21.dss.queryOperationalIntentReferences</name>
            <Placemark>
              <name>area_of_interest</name>
              <styleUrl>#QueryArea</styleUrl>
              <description><![CDATA[(no operational intent references found)]]></description>
              <TimeSpan>
                <begin>2026-06-22T14:56:07.501914+00:00</begin>
                <end>2026-06-22T15:41:07.501914+00:00</end>
              </TimeSpan>
              <MultiGeometry>
                <Polygon>
                  <altitudeMode>absolute</altitudeMode>
                  <outerBoundaryIs>
                    <LinearRing>
                      <coordinates>-96.759,32.7181,120.3179127798457 -96.759,32.71852,120.3179127798457 -96.75840000000001,32.71852,120.3179127798457 -96.75840000000001,32.7181,120.3179127798457</coordinates>
                    </LinearRing>
                  </outerBoundaryIs>
                </Polygon>
                <Polygon>
                  <altitudeMode>absolute</altitudeMode>
                  <outerBoundaryIs>
                    <LinearRing>
                      <coordinates>-96.759,32.7181,150.3179127798457 -96.759,32.71852,150.3179127798457 -96.75840000000001,32.71852,150.3179127798457 -96.75840000000001,32.7181,150.3179127798457</coordinates>
                    </LinearRing>
                  </outerBoundaryIs>
                </Polygon>
                <Polygon>
                  <altitudeMode>absolute</altitudeMode>
                  <outerBoundaryIs>
                    <LinearRing>
                      <coordinates>-96.759,32.7181,120.3179127798457 -96.759,32.7181,150.3179127798457 -96.759,32.71852,150.3179127798457 -96.759,32.71852,120.3179127798457</coordinates>
                    </LinearRing>
                  </outerBoundaryIs>
                </Polygon>
                <Polygon>
                  <altitudeMode>absolute</altitudeMode>
                  <outerBoundaryIs>
                    <LinearRing>
                      <coordinates>-96.759,32.71852,120.3179127798457 -96.759,32.71852,150.3179127798457 -96.75840000000001,32.71852,150.3179127798457 -96.75840000000001,32.71852,120.3179127798457</coordinates>
                    </LinearRing>
                  </outerBoundaryIs>
                </Polygon>
                <Polygon>
                  <altitudeMode>absolute</altitudeMode>
                  <outerBoundaryIs>
                    <LinearRing>
                      <coordinates>-96.75840000000001,32.71852,120.3179127798457 -96.75840000000001,32.71852,150.3179127798457 -96.75840000000001,32.7181,150.3179127798457 -96.75840000000001,32.7181,120.3179127798457</coordinates>
                    </LinearRing>
                  </outerBoundaryIs>
                </Polygon>
                <Polygon>
                  <altitudeMode>absolute</altitudeMode>
                  <outerBoundaryIs>
                    <LinearRing>
                      <coordinates>-96.75840000000001,32.7181,120.3179127798457 -96.75840000000001,32.7181,150.3179127798457 -96.759,32.7181,150.3179127798457 -96.759,32.7181,120.3179127798457</coordinates>
                    </LinearRing>
                  </outerBoundaryIs>
                </Polygon>
              </MultiGeometry>
            </Placemark>
          </Folder>
        </Folder>
        <Folder>
          <name>Attempt to plan Recently Ended Flight</name>
          <Folder>
            <name>E10: uss1_dss astm.f3548.v21.dss.queryOperationalIntentReferences</name>
            <Placemark>
              <name>area_of_interest</name>
              <styleUrl>#QueryArea</styleUrl>
              <description><![CDATA[(no operational intent references found)]]></description>
              <TimeSpan>
                <begin>2026-05-21T14:55:07.540039+00:00</begin>
                <end>2026-05-21T14:56:02.540039+00:00</end>
              </TimeSpan>
              <MultiGeometry>
                <Polygon>
                  <altitudeMode>absolute</altitudeMode>
                  <outerBoundaryIs>
                    <LinearRing>
                      <coordinates>-96.759,32.7181,120.3179127798457 -96.759,32.71852,120.3179127798457 -96.75840000000001,32.71852,120.3179127798457 -96.75840000000001,32.7181,120.3179127798457</coordinates>
                    </LinearRing>
                  </outerBoundaryIs>
                </Polygon>
                <Polygon>
                  <altitudeMode>absolute</altitudeMode>
                  <outerBoundaryIs>
                    <LinearRing>
                      <coordinates>-96.759,32.7181,150.3179127798457 -96.759,32.71852,150.3179127798457 -96.75840000000001,32.71852,150.3179127798457 -96.75840000000001,32.7181,150.3179127798457</coordinates>
                    </LinearRing>
                  </outerBoundaryIs>
                </Polygon>
                <Polygon>
                  <altitudeMode>absolute</altitudeMode>
                  <outerBoundaryIs>
                    <LinearRing>
                      <coordinates>-96.759,32.7181,120.3179127798457 -96.759,32.7181,150.3179127798457 -96.759,32.71852,150.3179127798457 -96.759,32.71852,120.3179127798457</coordinates>
                    </LinearRing>
                  </outerBoundaryIs>
                </Polygon>
                <Polygon>
                  <altitudeMode>absolute</altitudeMode>
                  <outerBoundaryIs>
                    <LinearRing>
                      <coordinates>-96.759,32.71852,120.3179127798457 -96.759,32.71852,150.3179127798457 -96.75840000000001,32.71852,150.3179127798457 -96.75840000000001,32.71852,120.3179127798457</coordinates>
                    </LinearRing>
                  </outerBoundaryIs>
                </Polygon>
                <Polygon>
                  <altitudeMode>absolute</altitudeMode>
                  <outerBoundaryIs>
                    <LinearRing>
                      <coordinates>-96.75840000000001,32.71852,120.3179127798457 -96.75840000000001,32.71852,150.3179127798457 -96.75840000000001,32.7181,150.3179127798457 -96.75840000000001,32.7181,120.3179127798457</coordinates>
                    </LinearRing>
                  </outerBoundaryIs>
                </Polygon>
                <Polygon>
                  <altitudeMode>absolute</altitudeMode>
                  <outerBoundaryIs>
                    <LinearRing>
                      <coordinates>-96.75840000000001,32.7181,120.3179127798457 -96.75840000000001,32.7181,150.3179127798457 -96.759,32.7181,150.3179127798457 -96.759,32.7181,120.3179127798457</coordinates>
                    </LinearRing>
                  </outerBoundaryIs>
                </Polygon>
              </MultiGeometry>
            </Placemark>
          </Folder>
          <Folder>
            <name>E12: uss2_core interuss.automated_testing.flight_planning.v1.UpsertFlightPlan</name>
            <Folder>
              <name>Activity Rejected, flight NotPlanned</name>
              <Placemark>
                <name>Volume 0</name>
                <styleUrl>#Planned_Nominal</styleUrl>
                <TimeSpan>
                  <begin>2026-05-21T14:55:07.540039+00:00</begin>
                  <end>2026-05-21T14:56:02.540039+00:00</end>
                </TimeSpan>
                <MultiGeometry>
                  <Polygon>
                    <altitudeMode>absolute</altitudeMode>
                    <outerBoundaryIs>
                      <LinearRing>
                        <coordinates>-96.7587,32.7181,120.31786387683485 -96.759,32.71852,120.31786387683485 -96.75840000000001,32.71852,120.31786387683485</coordinates>
                      </LinearRing>
                    </outerBoundaryIs>
                  </Polygon>
                  <Polygon>
                    <altitudeMode>absolute</altitudeMode>
                    <outerBoundaryIs>
                      <LinearRing>
                        <coordinates>-96.7587,32.7181,150.31786387683485 -96.759,32.71852,150.31786387683485 -96.75840000000001,32.71852,150.31786387683485</coordinates>
                      </LinearRing>
                    </outerBoundaryIs>
                  </Polygon>
                  <Polygon>
                    <altitudeMode>absolute</altitudeMode>
                    <outerBoundaryIs>
                      <LinearRing>
                        <coordinates>-96.7587,32.7181,120.31786387683485 -96.7587,32.7181,150.31786387683485 -96.759,32.71852,150.31786387683485 -96.759,32.71852,120.31786387683485</coordinates>
                      </LinearRing>
                    </outerBoundaryIs>
                  </Polygon>
                  <Polygon>
                    <altitudeMode>absolute</altitudeMode>
                    <outerBoundaryIs>
                      <LinearRing>
                        <coordinates>-96.759,32.71852,120.31786387683485 -96.759,32.71852,150.31786387683485 -96.75840000000001,32.71852,150.31786387683485 -96.75840000000001,32.71852,120.31786387683485</coordinates>
                      </LinearRing>
                    </outerBoundaryIs>
                  </Polygon>
                  <Polygon>
                    <altitudeMode>absolute</altitudeMode>
                    <outerBoundaryIs>
                      <LinearRing>
                        <coordinates>-96.75840000000001,32.71852,120.31786387683485 -96.75840000000001,32.71852,150.31786387683485 -96.7587,32.7181,150.31786387683485 -96.7587,32.7181,120.31786387683485</coordinates>
                      </LinearRing>
                    </outerBoundaryIs>
                  </Polygon>
                </MultiGeometry>
              </Placemark>
            </Folder>
          </Folder>
          <Folder>
            <name>E15: uss1_dss astm.f3548.v21.dss.queryOperationalIntentReferences</name>
            <Placemark>
              <name>area_of_interest</name>
              <styleUrl>#QueryArea</styleUrl>
              <description><![CDATA[(no operational intent references found)]]></description>
              <TimeSpan>
                <begin>2026-05-21T14:55:07.540039+00:00</begin>
                <end>2026-05-21T14:56:02.540039+00:00</end>
              </TimeSpan>
              <MultiGeometry>
                <Polygon>
                  <altitudeMode>absolute</altitudeMode>
                  <outerBoundaryIs>
                    <LinearRing>
                      <coordinates>-96.759,32.7181,120.3179127798457 -96.759,32.71852,120.3179127798457 -96.75840000000001,32.71852,120.3179127798457 -96.75840000000001,32.7181,120.3179127798457</coordinates>
                    </LinearRing>
                  </outerBoundaryIs>
                </Polygon>
                <Polygon>
                  <altitudeMode>absolute</altitudeMode>
                  <outerBoundaryIs>
                    <LinearRing>
                      <coordinates>-96.759,32.7181,150.3179127798457 -96.759,32.71852,150.3179127798457 -96.75840000000001,32.71852,150.3179127798457 -96.75840000000001,32.7181,150.3179127798457</coordinates>
                    </LinearRing>
                  </outerBoundaryIs>
                </Polygon>
                <Polygon>
                  <altitudeMode>absolute</altitudeMode>
                  <outerBoundaryIs>
                    <LinearRing>
                      <coordinates>-96.759,32.7181,120.3179127798457 -96.759,32.7181,150.3179127798457 -96.759,32.71852,150.3179127798457 -96.759,32.71852,120.3179127798457</coordinates>
                    </LinearRing>
                  </outerBoundaryIs>
                </Polygon>
                <Polygon>
                  <altitudeMode>absolute</altitudeMode>
                  <outerBoundaryIs>
                    <LinearRing>
                      <coordinates>-96.759,32.71852,120.3179127798457 -96.759,32.71852,150.3179127798457 -96.75840000000001,32.71852,150.3179127798457 -96.75840000000001,32.71852,120.3179127798457</coordinates>
                    </LinearRing>
                  </outerBoundaryIs>
                </Polygon>
                <Polygon>
                  <altitudeMode>absolute</altitudeMode>
                  <outerBoundaryIs>
                    <LinearRing>
                      <coordinates>-96.75840000000001,32.71852,120.3179127798457 -96.75840000000001,32.71852,150.3179127798457 -96.75840000000001,32.7181,150.3179127798457 -96.75840000000001,32.7181,120.3179127798457</coordinates>
                    </LinearRing>
                  </outerBoundaryIs>
                </Polygon>
                <Polygon>
                  <altitudeMode>absolute</altitudeMode>
                  <outerBoundaryIs>
                    <LinearRing>
                      <coordinates>-96.75840000000001,32.7181,120.3179127798457 -96.75840000000001,32.7181,150.3179127798457 -96.759,32.7181,150.3179127798457 -96.759,32.7181,120.3179127798457</coordinates>
                    </LinearRing>
                  </outerBoundaryIs>
                </Polygon>
              </MultiGeometry>
            </Placemark>
          </Folder>
        </Folder>
      </Folder>
      <Folder>
        <name>Validate transition to Ended state after cancellation</name>
        <Folder>
          <name>Plan Valid Flight</name>
          <Folder>
            <name>E18: uss1_dss astm.f3548.v21.dss.queryOperationalIntentReferences</name>
            <Placemark>
              <name>area_of_interest</name>
              <styleUrl>#QueryArea</styleUrl>
              <description><![CDATA[(no operational intent references found)]]></description>
              <TimeSpan>
                <begin>2026-05-21T14:56:06.501914+00:00</begin>
                <end>2026-05-21T15:41:06.501914+00:00</end>
              </TimeSpan>
              <MultiGeometry>
                <Polygon>
                  <altitudeMode>absolute</altitudeMode>
                  <outerBoundaryIs>
                    <LinearRing>
                      <coordinates>-96.759,32.7181,120.3179127798457 -96.759,32.71852,120.3179127798457 -96.75840000000001,32.71852,120.3179127798457 -96.75840000000001,32.7181,120.3179127798457</coordinates>
                    </LinearRing>
                  </outerBoundaryIs>
                </Polygon>
                <Polygon>
                  <altitudeMode>absolute</altitudeMode>
                  <outerBoundaryIs>
                    <LinearRing>
                      <coordinates>-96.759,32.7181,150.3179127798457 -96.759,32.71852,150.3179127798457 -96.75840000000001,32.71852,150.3179127798457 -96.75840000000001,32.7181,150.3179127798457</coordinates>
                    </LinearRing>
                  </outerBoundaryIs>
                </Polygon>
                <Polygon>
                  <altitudeMode>absolute</altitudeMode>
                  <outerBoundaryIs>
                    <LinearRing>
                      <coordinates>-96.759,32.7181,120.3179127798457 -96.759,32.7181,150.3179127798457 -96.759,32.71852,150.3179127798457 -96.759,32.71852,120.3179127798457</coordinates>
                    </LinearRing>
                  </outerBoundaryIs>
                </Polygon>
                <Polygon>
                  <altitudeMode>absolute</altitudeMode>
                  <outerBoundaryIs>
                    <LinearRing>
                      <coordinates>-96.759,32.71852,120.3179127798457 -96.759,32.71852,150.3179127798457 -96.75840000000001,32.71852,150.3179127798457 -96.75840000000001,32.71852,120.3179127798457</coordinates>
                    </LinearRing>
                  </outerBoundaryIs>
                </Polygon>
                <Polygon>
                  <altitudeMode>absolute</altitudeMode>
                  <outerBoundaryIs>
                    <LinearRing>
                      <coordinates>-96.75840000000001,32.71852,120.3179127798457 -96.75840000000001,32.71852,150.3179127798457 -96.75840000000001,32.7181,150.3179127798457 -96.75840000000001,32.7181,120.3179127798457</coordinates>
                    </LinearRing>
                  </outerBoundaryIs>
                </Polygon>
                <Polygon>
                  <altitudeMode>absolute</altitudeMode>
                  <outerBoundaryIs>
                    <LinearRing>
                      <coordinates>-96.75840000000001,32.7181,120.3179127798457 -96.75840000000001,32.7181,150.3179127798457 -96.759,32.7181,150.3179127798457 -96.759,32.7181,120.3179127798457</coordinates>
                    </LinearRing>
                  </outerBoundaryIs>
                </Polygon>
              </MultiGeometry>
            </Placemark>
          </Folder>
          <Folder>
            <name>E20: uss2_core interuss.automated_testing.flight_planning.v1.UpsertFlightPlan</name>
            <Folder>
              <name>Activity Completed, flight Planned</name>
              <Placemark>
                <name>Volume 0</name>
                <styleUrl>#Planned_Nominal</styleUrl>
                <TimeSpan>
                  <begin>2026-05-21T14:56:06.501914+00:00</begin>
                  <end>2026-05-21T15:41:06.501914+00:00</end>
                </TimeSpan>
                <MultiGeometry>
                  <Polygon>
                    <altitudeMode>absolute</altitudeMode>
                    <outerBoundaryIs>
                      <LinearRing>
                        <coordinates>-96.7587,32.7181,120.31786387683485 -96.759,32.71852,120.31786387683485 -96.75840000000001,32.71852,120.31786387683485</coordinates>
                      </LinearRing>
                    </outerBoundaryIs>
                  </Polygon>
                  <Polygon>
                    <altitudeMode>absolute</altitudeMode>
                    <outerBoundaryIs>
                      <LinearRing>
                        <coordinates>-96.7587,32.7181,150.31786387683485 -96.759,32.71852,150.31786387683485 -96.75840000000001,32.71852,150.31786387683485</coordinates>
                      </LinearRing>
                    </outerBoundaryIs>
                  </Polygon>
                  <Polygon>
                    <altitudeMode>absolute</altitudeMode>
                    <outerBoundaryIs>
                      <LinearRing>
                        <coordinates>-96.7587,32.7181,120.31786387683485 -96.7587,32.7181,150.31786387683485 -96.759,32.71852,150.31786387683485 -96.759,32.71852,120.31786387683485</coordinates>
                      </LinearRing>
                    </outerBoundaryIs>
                  </Polygon>
                  <Polygon>
                    <altitudeMode>absolute</altitudeMode>
                    <outerBoundaryIs>
                      <LinearRing>
                        <coordinates>-96.759,32.71852,120.31786387683485 -96.759,32.71852,150.31786387683485 -96.75840000000001,32.71852,150.31786387683485 -96.75840000000001,32.71852,120.31786387683485</coordinates>
                      </LinearRing>
                    </outerBoundaryIs>
                  </Polygon>
                  <Polygon>
                    <altitudeMode>absolute</altitudeMode>
                    <outerBoundaryIs>
                      <LinearRing>
                        <coordinates>-96.75840000000001,32.71852,120.31786387683485 -96.75840000000001,32.71852,150.31786387683485 -96.7587,32.7181,150.31786387683485 -96.7587,32.7181,120.31786387683485</coordinates>
                      </LinearRing>
                    </outerBoundaryIs>
                  </Polygon>
                </MultiGeometry>
              </Placemark>
            </Folder>
          </Folder>
          <Folder>
            <name>E24: uss1_dss astm.f3548.v21.dss.queryOperationalIntentReferences</name>
            <Placemark>
              <name>area_of_interest</name>
              <styleUrl>#QueryArea</styleUrl>
              <description><![CDATA[<ul><li>uss2's Accepted be203d60-6c88-4cc8-92b7-64f7e063d956[1]</li></ul>]]></description>
              <TimeSpan>
                <begin>2026-05-21T14:56:06.501914+00:00</begin>
                <end>2026-05-21T15:41:06.501914+00:00</end>
              </TimeSpan>
              <MultiGeometry>
                <Polygon>
                  <altitudeMode>absolute</altitudeMode>
                  <outerBoundaryIs>
                    <LinearRing>
                      <coordinates>-96.759,32.7181,120.3179127798457 -96.759,32.71852,120.3179127798457 -96.75840000000001,32.71852,120.3179127798457 -96.75840000000001,32.7181,120.3179127798457</coordinates>
                    </LinearRing>
                  </outerBoundaryIs>
                </Polygon>
                <Polygon>
                  <altitudeMode>absolute</altitudeMode>
                  <outerBoundaryIs>
                    <LinearRing>
                      <coordinates>-96.759,32.7181,150.3179127798457 -96.759,32.71852,150.3179127798457 -96.75840000000001,32.71852,150.3179127798457 -96.75840000000001,32.7181,150.3179127798457</coordinates>
                    </LinearRing>
                  </outerBoundaryIs>
                </Polygon>
                <Polygon>
                  <altitudeMode>absolute</altitudeMode>
                  <outerBoundaryIs>
                    <LinearRing>
                      <coordinates>-96.759,32.7181,120.3179127798457 -96.759,32.7181,150.3179127798457 -96.759,32.71852,150.3179127798457 -96.759,32.71852,120.3179127798457</coordinates>
                    </LinearRing>
                  </outerBoundaryIs>
                </Polygon>
                <Polygon>
                  <altitudeMode>absolute</altitudeMode>
                  <outerBoundaryIs>
                    <LinearRing>
                      <coordinates>-96.759,32.71852,120.3179127798457 -96.759,32.71852,150.3179127798457 -96.75840000000001,32.71852,150.3179127798457 -96.75840000000001,32.71852,120.3179127798457</coordinates>
                    </LinearRing>
                  </outerBoundaryIs>
                </Polygon>
                <Polygon>
                  <altitudeMode>absolute</altitudeMode>
                  <outerBoundaryIs>
                    <LinearRing>
                      <coordinates>-96.75840000000001,32.71852,120.3179127798457 -96.75840000000001,32.71852,150.3179127798457 -96.75840000000001,32.7181,150.3179127798457 -96.75840000000001,32.7181,120.3179127798457</coordinates>
                    </LinearRing>
                  </outerBoundaryIs>
                </Polygon>
                <Polygon>
                  <altitudeMode>absolute</altitudeMode>
                  <outerBoundaryIs>
                    <LinearRing>
                      <coordinates>-96.75840000000001,32.7181,120.3179127798457 -96.75840000000001,32.7181,150.3179127798457 -96.759,32.7181,150.3179127798457 -96.759,32.7181,120.3179127798457</coordinates>
                    </LinearRing>
                  </outerBoundaryIs>
                </Polygon>
              </MultiGeometry>
            </Placemark>
          </Folder>
          <Folder>
            <name>E28: uss2_core astm.f3548.v21.uss.getOperationalIntentDetails</name>
            <Folder>
              <name>uss2's P0 Accepted be203d60-6c88-4cc8-92b7-64f7e063d956[1] @ opVOj5f0UWAH2CF8SLsiRLmjj7wqp0sHBjIa4hbZO4Y_</name>
              <Placemark>
                <name>Nominal volume 0</name>
                <styleUrl>#F3548v21Accepted</styleUrl>
                <TimeSpan>
                  <begin>2026-05-21T14:56:07.590794+00:00</begin>
                  <end>2026-05-21T15:41:06.501914+00:00</end>
                </TimeSpan>
                <MultiGeometry>
                  <Polygon>
                    <altitudeMode>absolute</altitudeMode>
                    <outerBoundaryIs>
                      <LinearRing>
                        <coordinates>-96.7587,32.7181,120.31786387683485 -96.759,32.71852,120.31786387683485 -96.75840000000001,32.71852,120.31786387683485</coordinates>
                      </LinearRing>
                    </outerBoundaryIs>
                  </Polygon>
                  <Polygon>
                    <altitudeMode>absolute</altitudeMode>
                    <outerBoundaryIs>
                      <LinearRing>
                        <coordinates>-96.7587,32.7181,150.31786387683485 -96.759,32.71852,150.31786387683485 -96.75840000000001,32.71852,150.31786387683485</coordinates>
                      </LinearRing>
                    </outerBoundaryIs>
                  </Polygon>
                  <Polygon>
                    <altitudeMode>absolute</altitudeMode>
                    <outerBoundaryIs>
                      <LinearRing>
                        <coordinates>-96.7587,32.7181,120.31786387683485 -96.7587,32.7181,150.31786387683485 -96.759,32.71852,150.31786387683485 -96.759,32.71852,120.31786387683485</coordinates>
                      </LinearRing>
                    </outerBoundaryIs>
                  </Polygon>
                  <Polygon>
                    <altitudeMode>absolute</altitudeMode>
                    <outerBoundaryIs>
                      <LinearRing>
                        <coordinates>-96.759,32.71852,120.31786387683485 -96.759,32.71852,150.31786387683485 -96.75840000000001,32.71852,150.31786387683485 -96.75840000000001,32.71852,120.31786387683485</coordinates>
                      </LinearRing>
                    </outerBoundaryIs>
                  </Polygon>
                  <Polygon>
                    <altitudeMode>absolute</altitudeMode>
                    <outerBoundaryIs>
                      <LinearRing>
                        <coordinates>-96.75840000000001,32.71852,120.31786387683485 -96.75840000000001,32.71852,150.31786387683485 -96.7587,32.7181,150.31786387683485 -96.7587,32.7181,120.31786387683485</coordinates>
                      </LinearRing>
                    </outerBoundaryIs>
                  </Polygon>
                </MultiGeometry>
              </Placemark>
            </Folder>
          </Folder>
        </Folder>
        <Folder>
          <name>Remove Valid Flight</name>
          <Folder>
            <name>E37: uss1_dss astm.f3548.v21.dss.queryOperationalIntentReferences</name>
            <Placemark>
              <name>area_of_interest</name>
              <styleUrl>#QueryArea</styleUrl>
              <description><![CDATA[<ul><li>uss2's Accepted be203d60-6c88-4cc8-92b7-64f7e063d956[1]</li></ul>]]></description>
              <TimeSpan>
                <begin>2026-05-21T14:56:07.590794+00:00</begin>
                <end>2026-05-21T15:41:06.501914+00:00</end>
              </TimeSpan>
              <MultiGeometry>
                <Polygon>
                  <altitudeMode>absolute</altitudeMode>
                  <outerBoundaryIs>
                    <LinearRing>
                      <coordinates>-96.759,32.7181,120.3179127798457 -96.759,32.71852,120.3179127798457 -96.75840000000001,32.71852,120.3179127798457 -96.75840000000001,32.7181,120.3179127798457</coordinates>
                    </LinearRing>
                  </outerBoundaryIs>
                </Polygon>
                <Polygon>
                  <altitudeMode>absolute</altitudeMode>
                  <outerBoundaryIs>
                    <LinearRing>
                      <coordinates>-96.759,32.7181,150.3179127798457 -96.759,32.71852,150.3179127798457 -96.75840000000001,32.71852,150.3179127798457 -96.75840000000001,32.7181,150.3179127798457</coordinates>
                    </LinearRing>
                  </outerBoundaryIs>
                </Polygon>
                <Polygon>
                  <altitudeMode>absolute</altitudeMode>
                  <outerBoundaryIs>
                    <LinearRing>
                      <coordinates>-96.759,32.7181,120.3179127798457 -96.759,32.7181,150.3179127798457 -96.759,32.71852,150.3179127798457 -96.759,32.71852,120.3179127798457</coordinates>
                    </LinearRing>
                  </outerBoundaryIs>
                </Polygon>
                <Polygon>
                  <altitudeMode>absolute</altitudeMode>
                  <outerBoundaryIs>
                    <LinearRing>
                      <coordinates>-96.759,32.71852,120.3179127798457 -96.759,32.71852,150.3179127798457 -96.75840000000001,32.71852,150.3179127798457 -96.75840000000001,32.71852,120.3179127798457</coordinates>
                    </LinearRing>
                  </outerBoundaryIs>
                </Polygon>
                <Polygon>
                  <altitudeMode>absolute</altitudeMode>
                  <outerBoundaryIs>
                    <LinearRing>
                      <coordinates>-96.75840000000001,32.71852,120.3179127798457 -96.75840000000001,32.71852,150.3179127798457 -96.75840000000001,32.7181,150.3179127798457 -96.75840000000001,32.7181,120.3179127798457</coordinates>
                    </LinearRing>
                  </outerBoundaryIs>
                </Polygon>
                <Polygon>
                  <altitudeMode>absolute</altitudeMode>
                  <outerBoundaryIs>
                    <LinearRing>
                      <coordinates>-96.75840000000001,32.7181,120.3179127798457 -96.75840000000001,32.7181,150.3179127798457 -96.759,32.7181,150.3179127798457 -96.759,32.7181,120.3179127798457</coordinates>
                    </LinearRing>
                  </outerBoundaryIs>
                </Polygon>
              </MultiGeometry>
            </Placemark>
          </Folder>
          <Folder>
            <name>E41: uss1_dss astm.f3548.v21.dss.queryOperationalIntentReferences</name>
            <Placemark>
              <name>area_of_interest</name>
              <styleUrl>#QueryArea</styleUrl>
              <description><![CDATA[(no operational intent references found)]]></description>
              <TimeSpan>
                <begin>2026-05-21T14:56:07.590794+00:00</begin>
                <end>2026-05-21T15:41:06.501914+00:00</end>
              </TimeSpan>
              <MultiGeometry>
                <Polygon>
                  <altitudeMode>absolute</altitudeMode>
                  <outerBoundaryIs>
                    <LinearRing>
                      <coordinates>-96.759,32.7181,120.3179127798457 -96.759,32.71852,120.3179127798457 -96.75840000000001,32.71852,120.3179127798457 -96.75840000000001,32.7181,120.3179127798457</coordinates>
                    </LinearRing>
                  </outerBoundaryIs>
                </Polygon>
                <Polygon>
                  <altitudeMode>absolute</altitudeMode>
                  <outerBoundaryIs>
                    <LinearRing>
                      <coordinates>-96.759,32.7181,150.3179127798457 -96.759,32.71852,150.3179127798457 -96.75840000000001,32.71852,150.3179127798457 -96.75840000000001,32.7181,150.3179127798457</coordinates>
                    </LinearRing>
                  </outerBoundaryIs>
                </Polygon>
                <Polygon>
                  <altitudeMode>absolute</altitudeMode>
                  <outerBoundaryIs>
                    <LinearRing>
                      <coordinates>-96.759,32.7181,120.3179127798457 -96.759,32.7181,150.3179127798457 -96.759,32.71852,150.3179127798457 -96.759,32.71852,120.3179127798457</coordinates>
                    </LinearRing>
                  </outerBoundaryIs>
                </Polygon>
                <Polygon>
                  <altitudeMode>absolute</altitudeMode>
                  <outerBoundaryIs>
                    <LinearRing>
                      <coordinates>-96.759,32.71852,120.3179127798457 -96.759,32.71852,150.3179127798457 -96.75840000000001,32.71852,150.3179127798457 -96.75840000000001,32.71852,120.3179127798457</coordinates>
                    </LinearRing>
                  </outerBoundaryIs>
                </Polygon>
                <Polygon>
                  <altitudeMode>absolute</altitudeMode>
                  <outerBoundaryIs>
                    <LinearRing>
                      <coordinates>-96.75840000000001,32.71852,120.3179127798457 -96.75840000000001,32.71852,150.3179127798457 -96.75840000000001,32.7181,150.3179127798457 -96.75840000000001,32.7181,120.3179127798457</coordinates>
                    </LinearRing>
                  </outerBoundaryIs>
                </Polygon>
                <Polygon>
                  <altitudeMode>absolute</altitudeMode>
                  <outerBoundaryIs>
                    <LinearRing>
                      <coordinates>-96.75840000000001,32.7181,120.3179127798457 -96.75840000000001,32.7181,150.3179127798457 -96.759,32.7181,150.3179127798457 -96.759,32.7181,120.3179127798457</coordinates>
                    </LinearRing>
                  </outerBoundaryIs>
                </Polygon>
              </MultiGeometry>
            </Placemark>
          </Folder>
        </Folder>
      </Folder>
      <Folder>
        <name>Validate precision of intersection computations</name>
        <Folder>
          <name>Plan Valid Flight</name>
          <Folder>
            <name>E44: uss2_core interuss.automated_testing.flight_planning.v1.UpsertFlightPlan</name>
            <Folder>
              <name>Activity Completed, flight Planned</name>
              <Placemark>
                <name>Volume 0</name>
                <styleUrl>#Planned_Nominal</styleUrl>
                <TimeSpan>
                  <begin>2026-05-21T14:56:06.501914+00:00</begin>
                  <end>2026-05-21T15:41:06.501914+00:00</end>
                </TimeSpan>
                <MultiGeometry>
                  <Polygon>
                    <altitudeMode>absolute</altitudeMode>
                    <outerBoundaryIs>
                      <LinearRing>
                        <coordinates>-96.7587,32.7181,120.31786387683485 -96.759,32.71852,120.31786387683485 -96.75840000000001,32.71852,120.31786387683485</coordinates>
                      </LinearRing>
                    </outerBoundaryIs>
                  </Polygon>
                  <Polygon>
                    <altitudeMode>absolute</altitudeMode>
                    <outerBoundaryIs>
                      <LinearRing>
                        <coordinates>-96.7587,32.7181,150.31786387683485 -96.759,32.71852,150.31786387683485 -96.75840000000001,32.71852,150.31786387683485</coordinates>
                      </LinearRing>
                    </outerBoundaryIs>
                  </Polygon>
                  <Polygon>
                    <altitudeMode>absolute</altitudeMode>
                    <outerBoundaryIs>
                      <LinearRing>
                        <coordinates>-96.7587,32.7181,120.31786387683485 -96.7587,32.7181,150.31786387683485 -96.759,32.71852,150.31786387683485 -96.759,32.71852,120.31786387683485</coordinates>
                      </LinearRing>
                    </outerBoundaryIs>
                  </Polygon>
                  <Polygon>
                    <altitudeMode>absolute</altitudeMode>
                    <outerBoundaryIs>
                      <LinearRing>
                        <coordinates>-96.759,32.71852,120.31786387683485 -96.759,32.71852,150.31786387683485 -96.75840000000001,32.71852,150.31786387683485 -96.75840000000001,32.71852,120.31786387683485</coordinates>
                      </LinearRing>
                    </outerBoundaryIs>
                  </Polygon>
                  <Polygon>
                    <altitudeMode>absolute</altitudeMode>
                    <outerBoundaryIs>
                      <LinearRing>
                        <coordinates>-96.75840000000001,32.71852,120.31786387683485 -96.75840000000001,32.71852,150.31786387683485 -96.7587,32.7181,150.31786387683485 -96.7587,32.7181,120.31786387683485</coordinates>
                      </LinearRing>
                    </outerBoundaryIs>
                  </Polygon>
                </MultiGeometry>
              </Placemark>
            </Folder>
          </Folder>
        </Folder>
        <Folder>
          <name>Attempt to plan Tiny Overlap Conflict Flight</name>
          <Folder>
            <name>E48: uss1_dss astm.f3548.v21.dss.queryOperationalIntentReferences</name>
            <Placemark>
              <name>area_of_interest</name>
              <styleUrl>#QueryArea</styleUrl>
              <description><![CDATA[<ul><li>uss2's Accepted 09d1ee70-6d0a-48da-9e44-cc7bf7a6528d[1]</li></ul>]]></description>
              <TimeSpan>
                <begin>2026-05-21T14:56:06.501914+00:00</begin>
                <end>2026-05-21T15:41:06.501914+00:00</end>
              </TimeSpan>
              <MultiGeometry>
                <Polygon>
                  <altitudeMode>absolute</altitudeMode>
                  <outerBoundaryIs>
                    <LinearRing>
                      <coordinates>-96.759,32.71768,120.31820586722078 -96.759,32.7181001,120.31820586722078 -96.75840000000001,32.7181001,120.31820586722078 -96.75840000000001,32.71768,120.31820586722078</coordinates>
                    </LinearRing>
                  </outerBoundaryIs>
                </Polygon>
                <Polygon>
                  <altitudeMode>absolute</altitudeMode>
                  <outerBoundaryIs>
                    <LinearRing>
                      <coordinates>-96.759,32.71768,150.3182058672208 -96.759,32.7181001,150.3182058672208 -96.75840000000001,32.7181001,150.3182058672208 -96.75840000000001,32.71768,150.3182058672208</coordinates>
                    </LinearRing>
                  </outerBoundaryIs>
                </Polygon>
                <Polygon>
                  <altitudeMode>absolute</altitudeMode>
                  <outerBoundaryIs>
                    <LinearRing>
                      <coordinates>-96.759,32.71768,120.31820586722078 -96.759,32.71768,150.3182058672208 -96.759,32.7181001,150.3182058672208 -96.759,32.7181001,120.31820586722078</coordinates>
                    </LinearRing>
                  </outerBoundaryIs>
                </Polygon>
                <Polygon>
                  <altitudeMode>absolute</altitudeMode>
                  <outerBoundaryIs>
                    <LinearRing>
                      <coordinates>-96.759,32.7181001,120.31820586722078 -96.759,32.7181001,150.3182058672208 -96.75840000000001,32.7181001,150.3182058672208 -96.75840000000001,32.7181001,120.31820586722078</coordinates>
                    </LinearRing>
                  </outerBoundaryIs>
                </Polygon>
                <Polygon>
                  <altitudeMode>absolute</altitudeMode>
                  <outerBoundaryIs>
                    <LinearRing>
                      <coordinates>-96.75840000000001,32.7181001,120.31820586722078 -96.75840000000001,32.7181001,150.3182058672208 -96.75840000000001,32.71768,150.3182058672208 -96.75840000000001,32.71768,120.31820586722078</coordinates>
                    </LinearRing>
                  </outerBoundaryIs>
                </Polygon>
                <Polygon>
                  <altitudeMode>absolute</altitudeMode>
                  <outerBoundaryIs>
                    <LinearRing>
                      <coordinates>-96.75840000000001,32.71768,120.31820586722078 -96.75840000000001,32.71768,150.3182058672208 -96.759,32.71768,150.3182058672208 -96.759,32.71768,120.31820586722078</coordinates>
                    </LinearRing>
                  </outerBoundaryIs>
                </Polygon>
              </MultiGeometry>
            </Placemark>
          </Folder>
          <Folder>
            <name>E50: uss2_core interuss.automated_testing.flight_planning.v1.UpsertFlightPlan</name>
            <Folder>
              <name>Activity Rejected, flight NotPlanned</name>
              <Placemark>
                <name>Volume 0</name>
                <styleUrl>#Planned_Nominal</styleUrl>
                <TimeSpan>
                  <begin>2026-05-21T14:56:06.501914+00:00</begin>
                  <end>2026-05-21T15:41:06.501914+00:00</end>
                </TimeSpan>
                <MultiGeometry>
                  <Polygon>
                    <altitudeMode>absolute</altitudeMode>
                    <outerBoundaryIs>
                      <LinearRing>
                        <coordinates>-96.7587,32.7181001,120.31825468323834 -96.759,32.71768,120.31825468323834 -96.75840000000001,32.71768,120.31825468323834</coordinates>
                      </LinearRing>
                    </outerBoundaryIs>
                  </Polygon>
                  <Polygon>
                    <altitudeMode>absolute</altitudeMode>
                    <outerBoundaryIs>
                      <LinearRing>
                        <coordinates>-96.7587,32.7181001,150.31825468323834 -96.759,32.71768,150.31825468323834 -96.75840000000001,32.71768,150.31825468323834</coordinates>
                      </LinearRing>
                    </outerBoundaryIs>
                  </Polygon>
                  <Polygon>
                    <altitudeMode>absolute</altitudeMode>
                    <outerBoundaryIs>
                      <LinearRing>
                        <coordinates>-96.7587,32.7181001,120.31825468323834 -96.7587,32.7181001,150.31825468323834 -96.759,32.71768,150.31825468323834 -96.759,32.71768,120.31825468323834</coordinates>
                      </LinearRing>
                    </outerBoundaryIs>
                  </Polygon>
                  <Polygon>
                    <altitudeMode>absolute</altitudeMode>
                    <outerBoundaryIs>
                      <LinearRing>
                        <coordinates>-96.759,32.71768,120.31825468323834 -96.759,32.71768,150.31825468323834 -96.75840000000001,32.71768,150.31825468323834 -96.75840000000001,32.71768,120.31825468323834</coordinates>
                      </LinearRing>
                    </outerBoundaryIs>
                  </Polygon>
                  <Polygon>
                    <altitudeMode>absolute</altitudeMode>
                    <outerBoundaryIs>
                      <LinearRing>
                        <coordinates>-96.75840000000001,32.71768,120.31825468323834 -96.75840000000001,32.71768,150.31825468323834 -96.7587,32.7181001,150.31825468323834 -96.7587,32.7181001,120.31825468323834</coordinates>
                      </LinearRing>
                    </outerBoundaryIs>
                  </Polygon>
                </MultiGeometry>
              </Placemark>
            </Folder>
          </Folder>
          <Folder>
            <name>E53: uss1_dss astm.f3548.v21.dss.queryOperationalIntentReferences</name>
            <Placemark>
              <name>area_of_interest</name>
              <styleUrl>#QueryArea</styleUrl>
              <description><![CDATA[<ul><li>uss2's Accepted 09d1ee70-6d0a-48da-9e44-cc7bf7a6528d[1]</li></ul>]]></description>
              <TimeSpan>
                <begin>2026-05-21T14:56:06.501914+00:00</begin>
                <end>2026-05-21T15:41:06.501914+00:00</end>
              </TimeSpan>
              <MultiGeometry>
                <Polygon>
                  <altitudeMode>absolute</altitudeMode>
                  <outerBoundaryIs>
                    <LinearRing>
                      <coordinates>-96.759,32.71768,120.31820586722078 -96.759,32.7181001,120.31820586722078 -96.75840000000001,32.7181001,120.31820586722078 -96.75840000000001,32.71768,120.31820586722078</coordinates>
                    </LinearRing>
                  </outerBoundaryIs>
                </Polygon>
                <Polygon>
                  <altitudeMode>absolute</altitudeMode>
                  <outerBoundaryIs>
                    <LinearRing>
                      <coordinates>-96.759,32.71768,150.3182058672208 -96.759,32.7181001,150.3182058672208 -96.75840000000001,32.7181001,150.3182058672208 -96.75840000000001,32.71768,150.3182058672208</coordinates>
                    </LinearRing>
                  </outerBoundaryIs>
                </Polygon>
                <Polygon>
                  <altitudeMode>absolute</altitudeMode>
                  <outerBoundaryIs>
                    <LinearRing>
                      <coordinates>-96.759,32.71768,120.31820586722078 -96.759,32.71768,150.3182058672208 -96.759,32.7181001,150.3182058672208 -96.759,32.7181001,120.31820586722078</coordinates>
                    </LinearRing>
                  </outerBoundaryIs>
                </Polygon>
                <Polygon>
                  <altitudeMode>absolute</altitudeMode>
                  <outerBoundaryIs>
                    <LinearRing>
                      <coordinates>-96.759,32.7181001,120.31820586722078 -96.759,32.7181001,150.3182058672208 -96.75840000000001,32.7181001,150.3182058672208 -96.75840000000001,32.7181001,120.31820586722078</coordinates>
                    </LinearRing>
                  </outerBoundaryIs>
                </Polygon>
                <Polygon>
                  <altitudeMode>absolute</altitudeMode>
                  <outerBoundaryIs>
                    <LinearRing>
                      <coordinates>-96.75840000000001,32.7181001,120.31820586722078 -96.75840000000001,32.7181001,150.3182058672208 -96.75840000000001,32.71768,150.3182058672208 -96.75840000000001,32.71768,120.31820586722078</coordinates>
                    </LinearRing>
                  </outerBoundaryIs>
                </Polygon>
                <Polygon>
                  <altitudeMode>absolute</altitudeMode>
                  <outerBoundaryIs>
                    <LinearRing>
                      <coordinates>-96.75840000000001,32.71768,120.31820586722078 -96.75840000000001,32.71768,150.3182058672208 -96.759,32.71768,150.3182058672208 -96.759,32.71768,120.31820586722078</coordinates>
                    </LinearRing>
                  </outerBoundaryIs>
                </Polygon>
              </MultiGeometry>
            </Placemark>
          </Folder>
        </Folder>
      </Folder>
      <Folder>
        <name/>
        <Folder>
          <name>Cleanup</name>
        </Folder>
      </Folder>
    </Folder>
  </Document>
</kml>
