<kml xmlns="http://www.opengis.net/kml/2.2" xmlns:atom="http://www.w3.org/2005/Atom" xmlns:gx="http://www.google.com/kml/ext/2.2">
  <Document>
    <Style id="QueryArea">
      <LineStyle>
        <color>ffc0c000</color>
        <width>3</width>
      </LineStyle>
      <PolyStyle>
        <color>80ffffaa</color>
      </PolyStyle>
    </Style>
    <Style id="F3548v21Accepted">
      <LineStyle>
        <color>ff00c000</color>
        <width>3</width>
      </LineStyle>
      <PolyStyle>
        <color>80c0c0c0</color>
      </PolyStyle>
    </Style>
    <Style id="F3548v21Activated">
      <LineStyle>
        <color>ff00c000</color>
        <width>3</width>
      </LineStyle>
      <PolyStyle>
        <color>8000ff00</color>
      </PolyStyle>
    </Style>
    <Style id="F3548v21Nonconforming">
      <LineStyle>
        <color>ff00ffff</color>
        <width>5</width>
      </LineStyle>
      <PolyStyle>
        <color>8000ffff</color>
      </PolyStyle>
    </Style>
    <Style id="F3548v21Contingent">
      <LineStyle>
        <color>ff0000ff</color>
        <width>5</width>
      </LineStyle>
      <PolyStyle>
        <color>80ff0000ff</color>
      </PolyStyle>
    </Style>
    <Style id="F3548v21AcceptedFuture">
      <LineStyle>
        <color>80c0c0c0</color>
        <width>1</width>
      </LineStyle>
      <PolyStyle>
        <color>00000000</color>
      </PolyStyle>
    </Style>
    <Style id="F3548v21ActivatedFuture">
      <LineStyle>
        <color>8040c040</color>
        <width>1</width>
      </LineStyle>
      <PolyStyle>
        <color>00000000</color>
      </PolyStyle>
    </Style>
    <Style id="F3548v21NonconformingFuture">
      <LineStyle>
        <color>8000ffff</color>
        <width>1</width>
      </LineStyle>
      <PolyStyle>
        <color>00000000</color>
      </PolyStyle>
    </Style>
    <Style id="F3548v21ContingentFuture">
      <LineStyle>
        <color>80ff0000ff</color>
        <width>1</width>
      </LineStyle>
      <PolyStyle>
        <color>00000000</color>
      </PolyStyle>
    </Style>
    <Style id="Planned_Nominal">
      <LineStyle>
        <color>ff00c000</color>
        <width>3</width>
      </LineStyle>
      <PolyStyle>
        <color>80808080</color>
      </PolyStyle>
    </Style>
    <Style id="InUse_Nominal">
      <LineStyle>
        <color>ff00c000</color>
        <width>3</width>
      </LineStyle>
      <PolyStyle>
        <color>8000ff00</color>
      </PolyStyle>
    </Style>
    <Style id="InUse_OffNominal">
      <LineStyle>
        <color>ff00ffff</color>
        <width>5</width>
      </LineStyle>
      <PolyStyle>
        <color>8000ff00</color>
      </PolyStyle>
    </Style>
    <Style id="InUse_Contingent">
      <LineStyle>
        <color>ff0000ff</color>
        <width>5</width>
      </LineStyle>
      <PolyStyle>
        <color>8000ff00</color>
      </PolyStyle>
    </Style>
    <Style id="unmodifiedtelemetry">
      <IconStyle>
        <scale>1.4</scale>
        <Icon>
          <href>http://maps.google.com/mapfiles/kml/shapes/placemark_circle.png</href>
        </Icon>
      </IconStyle>
    </Style>
    <Style id="modifiedtelemetry">
      <IconStyle>
        <scale>1.4</scale>
        <Icon>
          <href>http://maps.google.com/mapfiles/kml/shapes/placemark_square.png</href>
        </Icon>
      </IconStyle>
    </Style>
    <Style id="aircraft">
      <IconStyle>
        <scale>1.4</scale>
        <Icon>
          <href>http://maps.google.com/mapfiles/kml/shapes/airports.png</href>
        </Icon>
      </IconStyle>
    </Style>
    <Folder>
      <name>Awareness of relevant operational intents</name>
      <Folder>
        <name>Activated operational intent receives notification of relevant intent</name>
        <Folder>
          <name>Tested_uss plans and activates Flight 1</name>
          <Folder>
            <name>E3: uss1_dss astm.f3548.v21.dss.queryOperationalIntentReferences</name>
            <Placemark>
              <name>area_of_interest</name>
              <styleUrl>#QueryArea</styleUrl>
              <description><![CDATA[(no operational intent references found)]]></description>
              <TimeSpan>
                <begin>2026-05-21T14:56:55.651042+00:00</begin>
                <end>2026-05-21T15:41:55.651042+00:00</end>
              </TimeSpan>
              <MultiGeometry>
                <Polygon>
                  <altitudeMode>absolute</altitudeMode>
                  <outerBoundaryIs>
                    <LinearRing>
                      <coordinates>-96.76905000000001,32.71379,111.32648537324911 -96.76905000000001,32.72749,111.32648537324911 -96.75554000000001,32.72749,111.32648537324911 -96.75554000000001,32.71379,111.32648537324911</coordinates>
                    </LinearRing>
                  </outerBoundaryIs>
                </Polygon>
                <Polygon>
                  <altitudeMode>absolute</altitudeMode>
                  <outerBoundaryIs>
                    <LinearRing>
                      <coordinates>-96.76905000000001,32.71379,196.3264853732491 -96.76905000000001,32.72749,196.3264853732491 -96.75554000000001,32.72749,196.3264853732491 -96.75554000000001,32.71379,196.3264853732491</coordinates>
                    </LinearRing>
                  </outerBoundaryIs>
                </Polygon>
                <Polygon>
                  <altitudeMode>absolute</altitudeMode>
                  <outerBoundaryIs>
                    <LinearRing>
                      <coordinates>-96.76905000000001,32.71379,111.32648537324911 -96.76905000000001,32.71379,196.3264853732491 -96.76905000000001,32.72749,196.3264853732491 -96.76905000000001,32.72749,111.32648537324911</coordinates>
                    </LinearRing>
                  </outerBoundaryIs>
                </Polygon>
                <Polygon>
                  <altitudeMode>absolute</altitudeMode>
                  <outerBoundaryIs>
                    <LinearRing>
                      <coordinates>-96.76905000000001,32.72749,111.32648537324911 -96.76905000000001,32.72749,196.3264853732491 -96.75554000000001,32.72749,196.3264853732491 -96.75554000000001,32.72749,111.32648537324911</coordinates>
                    </LinearRing>
                  </outerBoundaryIs>
                </Polygon>
                <Polygon>
                  <altitudeMode>absolute</altitudeMode>
                  <outerBoundaryIs>
                    <LinearRing>
                      <coordinates>-96.75554000000001,32.72749,111.32648537324911 -96.75554000000001,32.72749,196.3264853732491 -96.75554000000001,32.71379,196.3264853732491 -96.75554000000001,32.71379,111.32648537324911</coordinates>
                    </LinearRing>
                  </outerBoundaryIs>
                </Polygon>
                <Polygon>
                  <altitudeMode>absolute</altitudeMode>
                  <outerBoundaryIs>
                    <LinearRing>
                      <coordinates>-96.75554000000001,32.71379,111.32648537324911 -96.75554000000001,32.71379,196.3264853732491 -96.76905000000001,32.71379,196.3264853732491 -96.76905000000001,32.71379,111.32648537324911</coordinates>
                    </LinearRing>
                  </outerBoundaryIs>
                </Polygon>
              </MultiGeometry>
            </Placemark>
          </Folder>
          <Folder>
            <name>E5: uss2_core interuss.automated_testing.flight_planning.v1.UpsertFlightPlan</name>
            <Folder>
              <name>Activity Completed, flight Planned</name>
              <Placemark>
                <name>Volume 0</name>
                <styleUrl>#Planned_Nominal</styleUrl>
                <TimeSpan>
                  <begin>2026-05-21T14:56:55.651042+00:00</begin>
                  <end>2026-05-21T15:41:55.651042+00:00</end>
                </TimeSpan>
                <MultiGeometry>
                  <Polygon>
                    <altitudeMode>absolute</altitudeMode>
                    <outerBoundaryIs>
                      <LinearRing>
                        <coordinates>-96.7587,32.7181,111.32290035932249 -96.76705,32.72527,111.32290035932249 -96.76234000000001,32.72749,111.32290035932249 -96.75971,32.72631,111.32290035932249</coordinates>
                      </LinearRing>
                    </outerBoundaryIs>
                  </Polygon>
                  <Polygon>
                    <altitudeMode>absolute</altitudeMode>
                    <outerBoundaryIs>
                      <LinearRing>
                        <coordinates>-96.7587,32.7181,196.3229003593225 -96.76705,32.72527,196.3229003593225 -96.76234000000001,32.72749,196.3229003593225 -96.75971,32.72631,196.3229003593225</coordinates>
                      </LinearRing>
                    </outerBoundaryIs>
                  </Polygon>
                  <Polygon>
                    <altitudeMode>absolute</altitudeMode>
                    <outerBoundaryIs>
                      <LinearRing>
                        <coordinates>-96.7587,32.7181,111.32290035932249 -96.7587,32.7181,196.3229003593225 -96.76705,32.72527,196.3229003593225 -96.76705,32.72527,111.32290035932249</coordinates>
                      </LinearRing>
                    </outerBoundaryIs>
                  </Polygon>
                  <Polygon>
                    <altitudeMode>absolute</altitudeMode>
                    <outerBoundaryIs>
                      <LinearRing>
                        <coordinates>-96.76705,32.72527,111.32290035932249 -96.76705,32.72527,196.3229003593225 -96.76234000000001,32.72749,196.3229003593225 -96.76234000000001,32.72749,111.32290035932249</coordinates>
                      </LinearRing>
                    </outerBoundaryIs>
                  </Polygon>
                  <Polygon>
                    <altitudeMode>absolute</altitudeMode>
                    <outerBoundaryIs>
                      <LinearRing>
                        <coordinates>-96.76234000000001,32.72749,111.32290035932249 -96.76234000000001,32.72749,196.3229003593225 -96.75971,32.72631,196.3229003593225 -96.75971,32.72631,111.32290035932249</coordinates>
                      </LinearRing>
                    </outerBoundaryIs>
                  </Polygon>
                  <Polygon>
                    <altitudeMode>absolute</altitudeMode>
                    <outerBoundaryIs>
                      <LinearRing>
                        <coordinates>-96.75971,32.72631,111.32290035932249 -96.75971,32.72631,196.3229003593225 -96.7587,32.7181,196.3229003593225 -96.7587,32.7181,111.32290035932249</coordinates>
                      </LinearRing>
                    </outerBoundaryIs>
                  </Polygon>
                </MultiGeometry>
              </Placemark>
            </Folder>
          </Folder>
          <Folder>
            <name>E9: uss1_dss astm.f3548.v21.dss.queryOperationalIntentReferences</name>
            <Placemark>
              <name>area_of_interest</name>
              <styleUrl>#QueryArea</styleUrl>
              <description><![CDATA[<ul><li>uss2's Accepted 9f80c0ec-902f-4ebd-a98d-a0139e0303e0[1]</li></ul>]]></description>
              <TimeSpan>
                <begin>2026-05-21T14:56:55.651042+00:00</begin>
                <end>2026-05-21T15:41:55.651042+00:00</end>
              </TimeSpan>
              <MultiGeometry>
                <Polygon>
                  <altitudeMode>absolute</altitudeMode>
                  <outerBoundaryIs>
                    <LinearRing>
                      <coordinates>-96.76905000000001,32.71379,111.32648537324911 -96.76905000000001,32.72749,111.32648537324911 -96.75554000000001,32.72749,111.32648537324911 -96.75554000000001,32.71379,111.32648537324911</coordinates>
                    </LinearRing>
                  </outerBoundaryIs>
                </Polygon>
                <Polygon>
                  <altitudeMode>absolute</altitudeMode>
                  <outerBoundaryIs>
                    <LinearRing>
                      <coordinates>-96.76905000000001,32.71379,196.3264853732491 -96.76905000000001,32.72749,196.3264853732491 -96.75554000000001,32.72749,196.3264853732491 -96.75554000000001,32.71379,196.3264853732491</coordinates>
                    </LinearRing>
                  </outerBoundaryIs>
                </Polygon>
                <Polygon>
                  <altitudeMode>absolute</altitudeMode>
                  <outerBoundaryIs>
                    <LinearRing>
                      <coordinates>-96.76905000000001,32.71379,111.32648537324911 -96.76905000000001,32.71379,196.3264853732491 -96.76905000000001,32.72749,196.3264853732491 -96.76905000000001,32.72749,111.32648537324911</coordinates>
                    </LinearRing>
                  </outerBoundaryIs>
                </Polygon>
                <Polygon>
                  <altitudeMode>absolute</altitudeMode>
                  <outerBoundaryIs>
                    <LinearRing>
                      <coordinates>-96.76905000000001,32.72749,111.32648537324911 -96.76905000000001,32.72749,196.3264853732491 -96.75554000000001,32.72749,196.3264853732491 -96.75554000000001,32.72749,111.32648537324911</coordinates>
                    </LinearRing>
                  </outerBoundaryIs>
                </Polygon>
                <Polygon>
                  <altitudeMode>absolute</altitudeMode>
                  <outerBoundaryIs>
                    <LinearRing>
                      <coordinates>-96.75554000000001,32.72749,111.32648537324911 -96.75554000000001,32.72749,196.3264853732491 -96.75554000000001,32.71379,196.3264853732491 -96.75554000000001,32.71379,111.32648537324911</coordinates>
                    </LinearRing>
                  </outerBoundaryIs>
                </Polygon>
                <Polygon>
                  <altitudeMode>absolute</altitudeMode>
                  <outerBoundaryIs>
                    <LinearRing>
                      <coordinates>-96.75554000000001,32.71379,111.32648537324911 -96.75554000000001,32.71379,196.3264853732491 -96.76905000000001,32.71379,196.3264853732491 -96.76905000000001,32.71379,111.32648537324911</coordinates>
                    </LinearRing>
                  </outerBoundaryIs>
                </Polygon>
              </MultiGeometry>
            </Placemark>
          </Folder>
          <Folder>
            <name>E13: uss2_core astm.f3548.v21.uss.getOperationalIntentDetails</name>
            <Folder>
              <name>uss2's P0 Accepted 9f80c0ec-902f-4ebd-a98d-a0139e0303e0[1] @ oACAacaSfmmX8-TEVxhP04Q8blfrLC-5LT3oqP.KfWs_</name>
              <Placemark>
                <name>Nominal volume 0</name>
                <styleUrl>#F3548v21Accepted</styleUrl>
                <TimeSpan>
                  <begin>2026-05-21T14:56:56.695950+00:00</begin>
                  <end>2026-05-21T15:41:55.651042+00:00</end>
                </TimeSpan>
                <MultiGeometry>
                  <Polygon>
                    <altitudeMode>absolute</altitudeMode>
                    <outerBoundaryIs>
                      <LinearRing>
                        <coordinates>-96.7587,32.7181,111.32290035932249 -96.76705,32.72527,111.32290035932249 -96.76234000000001,32.72749,111.32290035932249 -96.75971,32.72631,111.32290035932249</coordinates>
                      </LinearRing>
                    </outerBoundaryIs>
                  </Polygon>
                  <Polygon>
                    <altitudeMode>absolute</altitudeMode>
                    <outerBoundaryIs>
                      <LinearRing>
                        <coordinates>-96.7587,32.7181,196.3229003593225 -96.76705,32.72527,196.3229003593225 -96.76234000000001,32.72749,196.3229003593225 -96.75971,32.72631,196.3229003593225</coordinates>
                      </LinearRing>
                    </outerBoundaryIs>
                  </Polygon>
                  <Polygon>
                    <altitudeMode>absolute</altitudeMode>
                    <outerBoundaryIs>
                      <LinearRing>
                        <coordinates>-96.7587,32.7181,111.32290035932249 -96.7587,32.7181,196.3229003593225 -96.76705,32.72527,196.3229003593225 -96.76705,32.72527,111.32290035932249</coordinates>
                      </LinearRing>
                    </outerBoundaryIs>
                  </Polygon>
                  <Polygon>
                    <altitudeMode>absolute</altitudeMode>
                    <outerBoundaryIs>
                      <LinearRing>
                        <coordinates>-96.76705,32.72527,111.32290035932249 -96.76705,32.72527,196.3229003593225 -96.76234000000001,32.72749,196.3229003593225 -96.76234000000001,32.72749,111.32290035932249</coordinates>
                      </LinearRing>
                    </outerBoundaryIs>
                  </Polygon>
                  <Polygon>
                    <altitudeMode>absolute</altitudeMode>
                    <outerBoundaryIs>
                      <LinearRing>
                        <coordinates>-96.76234000000001,32.72749,111.32290035932249 -96.76234000000001,32.72749,196.3229003593225 -96.75971,32.72631,196.3229003593225 -96.75971,32.72631,111.32290035932249</coordinates>
                      </LinearRing>
                    </outerBoundaryIs>
                  </Polygon>
                  <Polygon>
                    <altitudeMode>absolute</altitudeMode>
                    <outerBoundaryIs>
                      <LinearRing>
                        <coordinates>-96.75971,32.72631,111.32290035932249 -96.75971,32.72631,196.3229003593225 -96.7587,32.7181,196.3229003593225 -96.7587,32.7181,111.32290035932249</coordinates>
                      </LinearRing>
                    </outerBoundaryIs>
                  </Polygon>
                </MultiGeometry>
              </Placemark>
            </Folder>
          </Folder>
          <Folder>
            <name>E22: uss1_dss astm.f3548.v21.dss.queryOperationalIntentReferences</name>
            <Placemark>
              <name>area_of_interest</name>
              <styleUrl>#QueryArea</styleUrl>
              <description><![CDATA[<ul><li>uss2's Accepted 9f80c0ec-902f-4ebd-a98d-a0139e0303e0[1]</li></ul>]]></description>
              <TimeSpan>
                <begin>2026-05-21T14:56:55.651042+00:00</begin>
                <end>2026-05-21T15:41:55.651042+00:00</end>
              </TimeSpan>
              <MultiGeometry>
                <Polygon>
                  <altitudeMode>absolute</altitudeMode>
                  <outerBoundaryIs>
                    <LinearRing>
                      <coordinates>-96.76905000000001,32.71379,111.32648537324911 -96.76905000000001,32.72749,111.32648537324911 -96.75554000000001,32.72749,111.32648537324911 -96.75554000000001,32.71379,111.32648537324911</coordinates>
                    </LinearRing>
                  </outerBoundaryIs>
                </Polygon>
                <Polygon>
                  <altitudeMode>absolute</altitudeMode>
                  <outerBoundaryIs>
                    <LinearRing>
                      <coordinates>-96.76905000000001,32.71379,196.3264853732491 -96.76905000000001,32.72749,196.3264853732491 -96.75554000000001,32.72749,196.3264853732491 -96.75554000000001,32.71379,196.3264853732491</coordinates>
                    </LinearRing>
                  </outerBoundaryIs>
                </Polygon>
                <Polygon>
                  <altitudeMode>absolute</altitudeMode>
                  <outerBoundaryIs>
                    <LinearRing>
                      <coordinates>-96.76905000000001,32.71379,111.32648537324911 -96.76905000000001,32.71379,196.3264853732491 -96.76905000000001,32.72749,196.3264853732491 -96.76905000000001,32.72749,111.32648537324911</coordinates>
                    </LinearRing>
                  </outerBoundaryIs>
                </Polygon>
                <Polygon>
                  <altitudeMode>absolute</altitudeMode>
                  <outerBoundaryIs>
                    <LinearRing>
                      <coordinates>-96.76905000000001,32.72749,111.32648537324911 -96.76905000000001,32.72749,196.3264853732491 -96.75554000000001,32.72749,196.3264853732491 -96.75554000000001,32.72749,111.32648537324911</coordinates>
                    </LinearRing>
                  </outerBoundaryIs>
                </Polygon>
                <Polygon>
                  <altitudeMode>absolute</altitudeMode>
                  <outerBoundaryIs>
                    <LinearRing>
                      <coordinates>-96.75554000000001,32.72749,111.32648537324911 -96.75554000000001,32.72749,196.3264853732491 -96.75554000000001,32.71379,196.3264853732491 -96.75554000000001,32.71379,111.32648537324911</coordinates>
                    </LinearRing>
                  </outerBoundaryIs>
                </Polygon>
                <Polygon>
                  <altitudeMode>absolute</altitudeMode>
                  <outerBoundaryIs>
                    <LinearRing>
                      <coordinates>-96.75554000000001,32.71379,111.32648537324911 -96.75554000000001,32.71379,196.3264853732491 -96.76905000000001,32.71379,196.3264853732491 -96.76905000000001,32.71379,111.32648537324911</coordinates>
                    </LinearRing>
                  </outerBoundaryIs>
                </Polygon>
              </MultiGeometry>
            </Placemark>
          </Folder>
          <Folder>
            <name>E24: uss2_core interuss.automated_testing.flight_planning.v1.UpsertFlightPlan</name>
            <Folder>
              <name>Activity Completed, flight OkToFly</name>
              <Placemark>
                <name>Volume 0</name>
                <styleUrl>#InUse_Nominal</styleUrl>
                <TimeSpan>
                  <begin>2026-05-21T14:56:55.651042+00:00</begin>
                  <end>2026-05-21T15:41:55.651042+00:00</end>
                </TimeSpan>
                <MultiGeometry>
                  <Polygon>
                    <altitudeMode>absolute</altitudeMode>
                    <outerBoundaryIs>
                      <LinearRing>
                        <coordinates>-96.7587,32.7181,111.32290035932249 -96.76705,32.72527,111.32290035932249 -96.76234000000001,32.72749,111.32290035932249 -96.75971,32.72631,111.32290035932249</coordinates>
                      </LinearRing>
                    </outerBoundaryIs>
                  </Polygon>
                  <Polygon>
                    <altitudeMode>absolute</altitudeMode>
                    <outerBoundaryIs>
                      <LinearRing>
                        <coordinates>-96.7587,32.7181,196.3229003593225 -96.76705,32.72527,196.3229003593225 -96.76234000000001,32.72749,196.3229003593225 -96.75971,32.72631,196.3229003593225</coordinates>
                      </LinearRing>
                    </outerBoundaryIs>
                  </Polygon>
                  <Polygon>
                    <altitudeMode>absolute</altitudeMode>
                    <outerBoundaryIs>
                      <LinearRing>
                        <coordinates>-96.7587,32.7181,111.32290035932249 -96.7587,32.7181,196.3229003593225 -96.76705,32.72527,196.3229003593225 -96.76705,32.72527,111.32290035932249</coordinates>
                      </LinearRing>
                    </outerBoundaryIs>
                  </Polygon>
                  <Polygon>
                    <altitudeMode>absolute</altitudeMode>
                    <outerBoundaryIs>
                      <LinearRing>
                        <coordinates>-96.76705,32.72527,111.32290035932249 -96.76705,32.72527,196.3229003593225 -96.76234000000001,32.72749,196.3229003593225 -96.76234000000001,32.72749,111.32290035932249</coordinates>
                      </LinearRing>
                    </outerBoundaryIs>
                  </Polygon>
                  <Polygon>
                    <altitudeMode>absolute</altitudeMode>
                    <outerBoundaryIs>
                      <LinearRing>
                        <coordinates>-96.76234000000001,32.72749,111.32290035932249 -96.76234000000001,32.72749,196.3229003593225 -96.75971,32.72631,196.3229003593225 -96.75971,32.72631,111.32290035932249</coordinates>
                      </LinearRing>
                    </outerBoundaryIs>
                  </Polygon>
                  <Polygon>
                    <altitudeMode>absolute</altitudeMode>
                    <outerBoundaryIs>
                      <LinearRing>
                        <coordinates>-96.75971,32.72631,111.32290035932249 -96.75971,32.72631,196.3229003593225 -96.7587,32.7181,196.3229003593225 -96.7587,32.7181,111.32290035932249</coordinates>
                      </LinearRing>
                    </outerBoundaryIs>
                  </Polygon>
                </MultiGeometry>
              </Placemark>
            </Folder>
          </Folder>
          <Folder>
            <name>E28: uss1_dss astm.f3548.v21.dss.queryOperationalIntentReferences</name>
            <Placemark>
              <name>area_of_interest</name>
              <styleUrl>#QueryArea</styleUrl>
              <description><![CDATA[<ul><li>uss2's Activated 9f80c0ec-902f-4ebd-a98d-a0139e0303e0[2]</li></ul>]]></description>
              <TimeSpan>
                <begin>2026-05-21T14:56:55.651042+00:00</begin>
                <end>2026-05-21T15:41:55.651042+00:00</end>
              </TimeSpan>
              <MultiGeometry>
                <Polygon>
                  <altitudeMode>absolute</altitudeMode>
                  <outerBoundaryIs>
                    <LinearRing>
                      <coordinates>-96.76905000000001,32.71379,111.32648537324911 -96.76905000000001,32.72749,111.32648537324911 -96.75554000000001,32.72749,111.32648537324911 -96.75554000000001,32.71379,111.32648537324911</coordinates>
                    </LinearRing>
                  </outerBoundaryIs>
                </Polygon>
                <Polygon>
                  <altitudeMode>absolute</altitudeMode>
                  <outerBoundaryIs>
                    <LinearRing>
                      <coordinates>-96.76905000000001,32.71379,196.3264853732491 -96.76905000000001,32.72749,196.3264853732491 -96.75554000000001,32.72749,196.3264853732491 -96.75554000000001,32.71379,196.3264853732491</coordinates>
                    </LinearRing>
                  </outerBoundaryIs>
                </Polygon>
                <Polygon>
                  <altitudeMode>absolute</altitudeMode>
                  <outerBoundaryIs>
                    <LinearRing>
                      <coordinates>-96.76905000000001,32.71379,111.32648537324911 -96.76905000000001,32.71379,196.3264853732491 -96.76905000000001,32.72749,196.3264853732491 -96.76905000000001,32.72749,111.32648537324911</coordinates>
                    </LinearRing>
                  </outerBoundaryIs>
                </Polygon>
                <Polygon>
                  <altitudeMode>absolute</altitudeMode>
                  <outerBoundaryIs>
                    <LinearRing>
                      <coordinates>-96.76905000000001,32.72749,111.32648537324911 -96.76905000000001,32.72749,196.3264853732491 -96.75554000000001,32.72749,196.3264853732491 -96.75554000000001,32.72749,111.32648537324911</coordinates>
                    </LinearRing>
                  </outerBoundaryIs>
                </Polygon>
                <Polygon>
                  <altitudeMode>absolute</altitudeMode>
                  <outerBoundaryIs>
                    <LinearRing>
                      <coordinates>-96.75554000000001,32.72749,111.32648537324911 -96.75554000000001,32.72749,196.3264853732491 -96.75554000000001,32.71379,196.3264853732491 -96.75554000000001,32.71379,111.32648537324911</coordinates>
                    </LinearRing>
                  </outerBoundaryIs>
                </Polygon>
                <Polygon>
                  <altitudeMode>absolute</altitudeMode>
                  <outerBoundaryIs>
                    <LinearRing>
                      <coordinates>-96.75554000000001,32.71379,111.32648537324911 -96.75554000000001,32.71379,196.3264853732491 -96.76905000000001,32.71379,196.3264853732491 -96.76905000000001,32.71379,111.32648537324911</coordinates>
                    </LinearRing>
                  </outerBoundaryIs>
                </Polygon>
              </MultiGeometry>
            </Placemark>
          </Folder>
          <Folder>
            <name>E33: uss2_core astm.f3548.v21.uss.getOperationalIntentDetails</name>
            <Folder>
              <name>uss2's P0 Activated 9f80c0ec-902f-4ebd-a98d-a0139e0303e0[2] @ YuBawkyX9TSdq.PZpYxlGkf.x2z6O9RqAz8CA67Wk-E_</name>
              <Placemark>
                <name>Nominal volume 0</name>
                <styleUrl>#F3548v21Activated</styleUrl>
                <TimeSpan>
                  <begin>2026-05-21T14:56:56.931209+00:00</begin>
                  <end>2026-05-21T15:41:55.651042+00:00</end>
                </TimeSpan>
                <MultiGeometry>
                  <Polygon>
                    <altitudeMode>absolute</altitudeMode>
                    <outerBoundaryIs>
                      <LinearRing>
                        <coordinates>-96.7587,32.7181,111.32290035932249 -96.76705,32.72527,111.32290035932249 -96.76234000000001,32.72749,111.32290035932249 -96.75971,32.72631,111.32290035932249</coordinates>
                      </LinearRing>
                    </outerBoundaryIs>
                  </Polygon>
                  <Polygon>
                    <altitudeMode>absolute</altitudeMode>
                    <outerBoundaryIs>
                      <LinearRing>
                        <coordinates>-96.7587,32.7181,196.3229003593225 -96.76705,32.72527,196.3229003593225 -96.76234000000001,32.72749,196.3229003593225 -96.75971,32.72631,196.3229003593225</coordinates>
                      </LinearRing>
                    </outerBoundaryIs>
                  </Polygon>
                  <Polygon>
                    <altitudeMode>absolute</altitudeMode>
                    <outerBoundaryIs>
                      <LinearRing>
                        <coordinates>-96.7587,32.7181,111.32290035932249 -96.7587,32.7181,196.3229003593225 -96.76705,32.72527,196.3229003593225 -96.76705,32.72527,111.32290035932249</coordinates>
                      </LinearRing>
                    </outerBoundaryIs>
                  </Polygon>
                  <Polygon>
                    <altitudeMode>absolute</altitudeMode>
                    <outerBoundaryIs>
                      <LinearRing>
                        <coordinates>-96.76705,32.72527,111.32290035932249 -96.76705,32.72527,196.3229003593225 -96.76234000000001,32.72749,196.3229003593225 -96.76234000000001,32.72749,111.32290035932249</coordinates>
                      </LinearRing>
                    </outerBoundaryIs>
                  </Polygon>
                  <Polygon>
                    <altitudeMode>absolute</altitudeMode>
                    <outerBoundaryIs>
                      <LinearRing>
                        <coordinates>-96.76234000000001,32.72749,111.32290035932249 -96.76234000000001,32.72749,196.3229003593225 -96.75971,32.72631,196.3229003593225 -96.75971,32.72631,111.32290035932249</coordinates>
                      </LinearRing>
                    </outerBoundaryIs>
                  </Polygon>
                  <Polygon>
                    <altitudeMode>absolute</altitudeMode>
                    <outerBoundaryIs>
                      <LinearRing>
                        <coordinates>-96.75971,32.72631,111.32290035932249 -96.75971,32.72631,196.3229003593225 -96.7587,32.7181,196.3229003593225 -96.7587,32.7181,111.32290035932249</coordinates>
                      </LinearRing>
                    </outerBoundaryIs>
                  </Polygon>
                </MultiGeometry>
              </Placemark>
            </Folder>
          </Folder>
        </Folder>
        <Folder>
          <name>Mock_uss plans Flight 2</name>
          <Folder>
            <name>E42: uss1_dss astm.f3548.v21.dss.queryOperationalIntentReferences</name>
            <Placemark>
              <name>area_of_interest</name>
              <styleUrl>#QueryArea</styleUrl>
              <description><![CDATA[<ul><li>uss2's Activated 9f80c0ec-902f-4ebd-a98d-a0139e0303e0[2]</li></ul>]]></description>
              <TimeSpan>
                <begin>2026-05-21T14:56:55.651042+00:00</begin>
                <end>2026-05-21T15:41:55.651042+00:00</end>
              </TimeSpan>
              <MultiGeometry>
                <Polygon>
                  <altitudeMode>absolute</altitudeMode>
                  <outerBoundaryIs>
                    <LinearRing>
                      <coordinates>-96.76905000000001,32.71379,111.32648537324911 -96.76905000000001,32.72749,111.32648537324911 -96.75554000000001,32.72749,111.32648537324911 -96.75554000000001,32.71379,111.32648537324911</coordinates>
                    </LinearRing>
                  </outerBoundaryIs>
                </Polygon>
                <Polygon>
                  <altitudeMode>absolute</altitudeMode>
                  <outerBoundaryIs>
                    <LinearRing>
                      <coordinates>-96.76905000000001,32.71379,196.3264853732491 -96.76905000000001,32.72749,196.3264853732491 -96.75554000000001,32.72749,196.3264853732491 -96.75554000000001,32.71379,196.3264853732491</coordinates>
                    </LinearRing>
                  </outerBoundaryIs>
                </Polygon>
                <Polygon>
                  <altitudeMode>absolute</altitudeMode>
                  <outerBoundaryIs>
                    <LinearRing>
                      <coordinates>-96.76905000000001,32.71379,111.32648537324911 -96.76905000000001,32.71379,196.3264853732491 -96.76905000000001,32.72749,196.3264853732491 -96.76905000000001,32.72749,111.32648537324911</coordinates>
                    </LinearRing>
                  </outerBoundaryIs>
                </Polygon>
                <Polygon>
                  <altitudeMode>absolute</altitudeMode>
                  <outerBoundaryIs>
                    <LinearRing>
                      <coordinates>-96.76905000000001,32.72749,111.32648537324911 -96.76905000000001,32.72749,196.3264853732491 -96.75554000000001,32.72749,196.3264853732491 -96.75554000000001,32.72749,111.32648537324911</coordinates>
                    </LinearRing>
                  </outerBoundaryIs>
                </Polygon>
                <Polygon>
                  <altitudeMode>absolute</altitudeMode>
                  <outerBoundaryIs>
                    <LinearRing>
                      <coordinates>-96.75554000000001,32.72749,111.32648537324911 -96.75554000000001,32.72749,196.3264853732491 -96.75554000000001,32.71379,196.3264853732491 -96.75554000000001,32.71379,111.32648537324911</coordinates>
                    </LinearRing>
                  </outerBoundaryIs>
                </Polygon>
                <Polygon>
                  <altitudeMode>absolute</altitudeMode>
                  <outerBoundaryIs>
                    <LinearRing>
                      <coordinates>-96.75554000000001,32.71379,111.32648537324911 -96.75554000000001,32.71379,196.3264853732491 -96.76905000000001,32.71379,196.3264853732491 -96.76905000000001,32.71379,111.32648537324911</coordinates>
                    </LinearRing>
                  </outerBoundaryIs>
                </Polygon>
              </MultiGeometry>
            </Placemark>
          </Folder>
          <Folder>
            <name>E44: mock_uss interuss.automated_testing.flight_planning.v1.UpsertFlightPlan</name>
            <Folder>
              <name>Activity Completed, flight Planned</name>
              <Placemark>
                <name>Volume 0</name>
                <styleUrl>#Planned_Nominal</styleUrl>
                <TimeSpan>
                  <begin>2026-05-21T14:56:55.651042+00:00</begin>
                  <end>2026-05-21T15:41:55.651042+00:00</end>
                </TimeSpan>
                <MultiGeometry>
                  <Polygon>
                    <altitudeMode>absolute</altitudeMode>
                    <outerBoundaryIs>
                      <LinearRing>
                        <coordinates>-96.75935,32.7258,120.31976147585817 -96.75554000000001,32.72406,120.31976147585817 -96.75811,32.71379,120.31976147585817 -96.76905000000001,32.72563,120.31976147585817 -96.75857,32.71785,120.31976147585817</coordinates>
                      </LinearRing>
                    </outerBoundaryIs>
                  </Polygon>
                  <Polygon>
                    <altitudeMode>absolute</altitudeMode>
                    <outerBoundaryIs>
                      <LinearRing>
                        <coordinates>-96.75935,32.7258,178.31976147585817 -96.75554000000001,32.72406,178.31976147585817 -96.75811,32.71379,178.31976147585817 -96.76905000000001,32.72563,178.31976147585817 -96.75857,32.71785,178.31976147585817</coordinates>
                      </LinearRing>
                    </outerBoundaryIs>
                  </Polygon>
                  <Polygon>
                    <altitudeMode>absolute</altitudeMode>
                    <outerBoundaryIs>
                      <LinearRing>
                        <coordinates>-96.75935,32.7258,120.31976147585817 -96.75935,32.7258,178.31976147585817 -96.75554000000001,32.72406,178.31976147585817 -96.75554000000001,32.72406,120.31976147585817</coordinates>
                      </LinearRing>
                    </outerBoundaryIs>
                  </Polygon>
                  <Polygon>
                    <altitudeMode>absolute</altitudeMode>
                    <outerBoundaryIs>
                      <LinearRing>
                        <coordinates>-96.75554000000001,32.72406,120.31976147585817 -96.75554000000001,32.72406,178.31976147585817 -96.75811,32.71379,178.31976147585817 -96.75811,32.71379,120.31976147585817</coordinates>
                      </LinearRing>
                    </outerBoundaryIs>
                  </Polygon>
                  <Polygon>
                    <altitudeMode>absolute</altitudeMode>
                    <outerBoundaryIs>
                      <LinearRing>
                        <coordinates>-96.75811,32.71379,120.31976147585817 -96.75811,32.71379,178.31976147585817 -96.76905000000001,32.72563,178.31976147585817 -96.76905000000001,32.72563,120.31976147585817</coordinates>
                      </LinearRing>
                    </outerBoundaryIs>
                  </Polygon>
                  <Polygon>
                    <altitudeMode>absolute</altitudeMode>
                    <outerBoundaryIs>
                      <LinearRing>
                        <coordinates>-96.76905000000001,32.72563,120.31976147585817 -96.76905000000001,32.72563,178.31976147585817 -96.75857,32.71785,178.31976147585817 -96.75857,32.71785,120.31976147585817</coordinates>
                      </LinearRing>
                    </outerBoundaryIs>
                  </Polygon>
                  <Polygon>
                    <altitudeMode>absolute</altitudeMode>
                    <outerBoundaryIs>
                      <LinearRing>
                        <coordinates>-96.75857,32.71785,120.31976147585817 -96.75857,32.71785,178.31976147585817 -96.75935,32.7258,178.31976147585817 -96.75935,32.7258,120.31976147585817</coordinates>
                      </LinearRing>
                    </outerBoundaryIs>
                  </Polygon>
                </MultiGeometry>
              </Placemark>
            </Folder>
          </Folder>
          <Folder>
            <name>E48: uss1_dss astm.f3548.v21.dss.queryOperationalIntentReferences</name>
            <Placemark>
              <name>area_of_interest</name>
              <styleUrl>#QueryArea</styleUrl>
              <description><![CDATA[<ul><li>uss2's Activated 9f80c0ec-902f-4ebd-a98d-a0139e0303e0[2]</li><li>uss6's Accepted f21e8ed0-e8b0-4d31-9c8a-a60e1581f3cd[1]</li></ul>]]></description>
              <TimeSpan>
                <begin>2026-05-21T14:56:55.651042+00:00</begin>
                <end>2026-05-21T15:41:55.651042+00:00</end>
              </TimeSpan>
              <MultiGeometry>
                <Polygon>
                  <altitudeMode>absolute</altitudeMode>
                  <outerBoundaryIs>
                    <LinearRing>
                      <coordinates>-96.76905000000001,32.71379,111.32648537324911 -96.76905000000001,32.72749,111.32648537324911 -96.75554000000001,32.72749,111.32648537324911 -96.75554000000001,32.71379,111.32648537324911</coordinates>
                    </LinearRing>
                  </outerBoundaryIs>
                </Polygon>
                <Polygon>
                  <altitudeMode>absolute</altitudeMode>
                  <outerBoundaryIs>
                    <LinearRing>
                      <coordinates>-96.76905000000001,32.71379,196.3264853732491 -96.76905000000001,32.72749,196.3264853732491 -96.75554000000001,32.72749,196.3264853732491 -96.75554000000001,32.71379,196.3264853732491</coordinates>
                    </LinearRing>
                  </outerBoundaryIs>
                </Polygon>
                <Polygon>
                  <altitudeMode>absolute</altitudeMode>
                  <outerBoundaryIs>
                    <LinearRing>
                      <coordinates>-96.76905000000001,32.71379,111.32648537324911 -96.76905000000001,32.71379,196.3264853732491 -96.76905000000001,32.72749,196.3264853732491 -96.76905000000001,32.72749,111.32648537324911</coordinates>
                    </LinearRing>
                  </outerBoundaryIs>
                </Polygon>
                <Polygon>
                  <altitudeMode>absolute</altitudeMode>
                  <outerBoundaryIs>
                    <LinearRing>
                      <coordinates>-96.76905000000001,32.72749,111.32648537324911 -96.76905000000001,32.72749,196.3264853732491 -96.75554000000001,32.72749,196.3264853732491 -96.75554000000001,32.72749,111.32648537324911</coordinates>
                    </LinearRing>
                  </outerBoundaryIs>
                </Polygon>
                <Polygon>
                  <altitudeMode>absolute</altitudeMode>
                  <outerBoundaryIs>
                    <LinearRing>
                      <coordinates>-96.75554000000001,32.72749,111.32648537324911 -96.75554000000001,32.72749,196.3264853732491 -96.75554000000001,32.71379,196.3264853732491 -96.75554000000001,32.71379,111.32648537324911</coordinates>
                    </LinearRing>
                  </outerBoundaryIs>
                </Polygon>
                <Polygon>
                  <altitudeMode>absolute</altitudeMode>
                  <outerBoundaryIs>
                    <LinearRing>
                      <coordinates>-96.75554000000001,32.71379,111.32648537324911 -96.75554000000001,32.71379,196.3264853732491 -96.76905000000001,32.71379,196.3264853732491 -96.76905000000001,32.71379,111.32648537324911</coordinates>
                    </LinearRing>
                  </outerBoundaryIs>
                </Polygon>
              </MultiGeometry>
            </Placemark>
          </Folder>
          <Folder>
            <name>E52: mock_uss astm.f3548.v21.uss.getOperationalIntentDetails</name>
            <Folder>
              <name>uss6's P0 Accepted f21e8ed0-e8b0-4d31-9c8a-a60e1581f3cd[1] @ fTQc3zJwXdDNEViT3IBQJkEOeA9IBCMkcClb2UqXdCg_</name>
              <Placemark>
                <name>Nominal volume 0</name>
                <styleUrl>#F3548v21Accepted</styleUrl>
                <TimeSpan>
                  <begin>2026-05-21T14:56:57.165470+00:00</begin>
                  <end>2026-05-21T15:41:55.651042+00:00</end>
                </TimeSpan>
                <MultiGeometry>
                  <Polygon>
                    <altitudeMode>absolute</altitudeMode>
                    <outerBoundaryIs>
                      <LinearRing>
                        <coordinates>-96.75935,32.7258,120.31976147585817 -96.75554000000001,32.72406,120.31976147585817 -96.75811,32.71379,120.31976147585817 -96.76905000000001,32.72563,120.31976147585817 -96.75857,32.71785,120.31976147585817</coordinates>
                      </LinearRing>
                    </outerBoundaryIs>
                  </Polygon>
                  <Polygon>
                    <altitudeMode>absolute</altitudeMode>
                    <outerBoundaryIs>
                      <LinearRing>
                        <coordinates>-96.75935,32.7258,178.31976147585817 -96.75554000000001,32.72406,178.31976147585817 -96.75811,32.71379,178.31976147585817 -96.76905000000001,32.72563,178.31976147585817 -96.75857,32.71785,178.31976147585817</coordinates>
                      </LinearRing>
                    </outerBoundaryIs>
                  </Polygon>
                  <Polygon>
                    <altitudeMode>absolute</altitudeMode>
                    <outerBoundaryIs>
                      <LinearRing>
                        <coordinates>-96.75935,32.7258,120.31976147585817 -96.75935,32.7258,178.31976147585817 -96.75554000000001,32.72406,178.31976147585817 -96.75554000000001,32.72406,120.31976147585817</coordinates>
                      </LinearRing>
                    </outerBoundaryIs>
                  </Polygon>
                  <Polygon>
                    <altitudeMode>absolute</altitudeMode>
                    <outerBoundaryIs>
                      <LinearRing>
                        <coordinates>-96.75554000000001,32.72406,120.31976147585817 -96.75554000000001,32.72406,178.31976147585817 -96.75811,32.71379,178.31976147585817 -96.75811,32.71379,120.31976147585817</coordinates>
                      </LinearRing>
                    </outerBoundaryIs>
                  </Polygon>
                  <Polygon>
                    <altitudeMode>absolute</altitudeMode>
                    <outerBoundaryIs>
                      <LinearRing>
                        <coordinates>-96.75811,32.71379,120.31976147585817 -96.75811,32.71379,178.31976147585817 -96.76905000000001,32.72563,178.31976147585817 -96.76905000000001,32.72563,120.31976147585817</coordinates>
                      </LinearRing>
                    </outerBoundaryIs>
                  </Polygon>
                  <Polygon>
                    <altitudeMode>absolute</altitudeMode>
                    <outerBoundaryIs>
                      <LinearRing>
                        <coordinates>-96.76905000000001,32.72563,120.31976147585817 -96.76905000000001,32.72563,178.31976147585817 -96.75857,32.71785,178.31976147585817 -96.75857,32.71785,120.31976147585817</coordinates>
                      </LinearRing>
                    </outerBoundaryIs>
                  </Polygon>
                  <Polygon>
                    <altitudeMode>absolute</altitudeMode>
                    <outerBoundaryIs>
                      <LinearRing>
                        <coordinates>-96.75857,32.71785,120.31976147585817 -96.75857,32.71785,178.31976147585817 -96.75935,32.7258,178.31976147585817 -96.75935,32.7258,120.31976147585817</coordinates>
                      </LinearRing>
                    </outerBoundaryIs>
                  </Polygon>
                </MultiGeometry>
              </Placemark>
            </Folder>
          </Folder>
        </Folder>
        <Folder>
          <name>Validate Flight 2 notification received by tested_uss</name>
        </Folder>
      </Folder>
      <Folder>
        <name>Modify Activated operational intent area and receive notification of relevant intent</name>
        <Folder>
          <name>Mock_uss modifies planned Flight 2</name>
          <Folder>
            <name>E65: uss1_dss astm.f3548.v21.dss.queryOperationalIntentReferences</name>
            <Placemark>
              <name>area_of_interest</name>
              <styleUrl>#QueryArea</styleUrl>
              <description><![CDATA[<ul><li>uss2's Activated 9f80c0ec-902f-4ebd-a98d-a0139e0303e0[2]</li><li>uss6's Accepted f21e8ed0-e8b0-4d31-9c8a-a60e1581f3cd[1]</li></ul>]]></description>
              <TimeSpan>
                <begin>2026-05-21T14:56:56.351274+00:00</begin>
                <end>2026-05-21T15:41:56.351274+00:00</end>
              </TimeSpan>
              <MultiGeometry>
                <Polygon>
                  <altitudeMode>absolute</altitudeMode>
                  <outerBoundaryIs>
                    <LinearRing>
                      <coordinates>-96.76905000000001,32.71379,120.32708258517631 -96.76905000000001,32.7258,120.32708258517631 -96.75554000000001,32.7258,120.32708258517631 -96.75554000000001,32.71379,120.32708258517631</coordinates>
                    </LinearRing>
                  </outerBoundaryIs>
                </Polygon>
                <Polygon>
                  <altitudeMode>absolute</altitudeMode>
                  <outerBoundaryIs>
                    <LinearRing>
                      <coordinates>-96.76905000000001,32.71379,185.3270825851763 -96.76905000000001,32.7258,185.3270825851763 -96.75554000000001,32.7258,185.3270825851763 -96.75554000000001,32.71379,185.3270825851763</coordinates>
                    </LinearRing>
                  </outerBoundaryIs>
                </Polygon>
                <Polygon>
                  <altitudeMode>absolute</altitudeMode>
                  <outerBoundaryIs>
                    <LinearRing>
                      <coordinates>-96.76905000000001,32.71379,120.32708258517631 -96.76905000000001,32.71379,185.3270825851763 -96.76905000000001,32.7258,185.3270825851763 -96.76905000000001,32.7258,120.32708258517631</coordinates>
                    </LinearRing>
                  </outerBoundaryIs>
                </Polygon>
                <Polygon>
                  <altitudeMode>absolute</altitudeMode>
                  <outerBoundaryIs>
                    <LinearRing>
                      <coordinates>-96.76905000000001,32.7258,120.32708258517631 -96.76905000000001,32.7258,185.3270825851763 -96.75554000000001,32.7258,185.3270825851763 -96.75554000000001,32.7258,120.32708258517631</coordinates>
                    </LinearRing>
                  </outerBoundaryIs>
                </Polygon>
                <Polygon>
                  <altitudeMode>absolute</altitudeMode>
                  <outerBoundaryIs>
                    <LinearRing>
                      <coordinates>-96.75554000000001,32.7258,120.32708258517631 -96.75554000000001,32.7258,185.3270825851763 -96.75554000000001,32.71379,185.3270825851763 -96.75554000000001,32.71379,120.32708258517631</coordinates>
                    </LinearRing>
                  </outerBoundaryIs>
                </Polygon>
                <Polygon>
                  <altitudeMode>absolute</altitudeMode>
                  <outerBoundaryIs>
                    <LinearRing>
                      <coordinates>-96.75554000000001,32.71379,120.32708258517631 -96.75554000000001,32.71379,185.3270825851763 -96.76905000000001,32.71379,185.3270825851763 -96.76905000000001,32.71379,120.32708258517631</coordinates>
                    </LinearRing>
                  </outerBoundaryIs>
                </Polygon>
              </MultiGeometry>
            </Placemark>
          </Folder>
          <Folder>
            <name>E67: mock_uss interuss.automated_testing.flight_planning.v1.UpsertFlightPlan</name>
            <Folder>
              <name>Activity Completed, flight Planned</name>
              <Placemark>
                <name>Volume 0</name>
                <styleUrl>#Planned_Nominal</styleUrl>
                <TimeSpan>
                  <begin>2026-05-21T14:56:56.351274+00:00</begin>
                  <end>2026-05-21T15:41:56.351274+00:00</end>
                </TimeSpan>
                <MultiGeometry>
                  <Polygon>
                    <altitudeMode>absolute</altitudeMode>
                    <outerBoundaryIs>
                      <LinearRing>
                        <coordinates>-96.75935,32.7258,120.31976147585817 -96.75554000000001,32.72406,120.31976147585817 -96.75811,32.71379,120.31976147585817 -96.76905000000001,32.72563,120.31976147585817 -96.75857,32.71785,120.31976147585817</coordinates>
                      </LinearRing>
                    </outerBoundaryIs>
                  </Polygon>
                  <Polygon>
                    <altitudeMode>absolute</altitudeMode>
                    <outerBoundaryIs>
                      <LinearRing>
                        <coordinates>-96.75935,32.7258,185.31976147585817 -96.75554000000001,32.72406,185.31976147585817 -96.75811,32.71379,185.31976147585817 -96.76905000000001,32.72563,185.31976147585817 -96.75857,32.71785,185.31976147585817</coordinates>
                      </LinearRing>
                    </outerBoundaryIs>
                  </Polygon>
                  <Polygon>
                    <altitudeMode>absolute</altitudeMode>
                    <outerBoundaryIs>
                      <LinearRing>
                        <coordinates>-96.75935,32.7258,120.31976147585817 -96.75935,32.7258,185.31976147585817 -96.75554000000001,32.72406,185.31976147585817 -96.75554000000001,32.72406,120.31976147585817</coordinates>
                      </LinearRing>
                    </outerBoundaryIs>
                  </Polygon>
                  <Polygon>
                    <altitudeMode>absolute</altitudeMode>
                    <outerBoundaryIs>
                      <LinearRing>
                        <coordinates>-96.75554000000001,32.72406,120.31976147585817 -96.75554000000001,32.72406,185.31976147585817 -96.75811,32.71379,185.31976147585817 -96.75811,32.71379,120.31976147585817</coordinates>
                      </LinearRing>
                    </outerBoundaryIs>
                  </Polygon>
                  <Polygon>
                    <altitudeMode>absolute</altitudeMode>
                    <outerBoundaryIs>
                      <LinearRing>
                        <coordinates>-96.75811,32.71379,120.31976147585817 -96.75811,32.71379,185.31976147585817 -96.76905000000001,32.72563,185.31976147585817 -96.76905000000001,32.72563,120.31976147585817</coordinates>
                      </LinearRing>
                    </outerBoundaryIs>
                  </Polygon>
                  <Polygon>
                    <altitudeMode>absolute</altitudeMode>
                    <outerBoundaryIs>
                      <LinearRing>
                        <coordinates>-96.76905000000001,32.72563,120.31976147585817 -96.76905000000001,32.72563,185.31976147585817 -96.75857,32.71785,185.31976147585817 -96.75857,32.71785,120.31976147585817</coordinates>
                      </LinearRing>
                    </outerBoundaryIs>
                  </Polygon>
                  <Polygon>
                    <altitudeMode>absolute</altitudeMode>
                    <outerBoundaryIs>
                      <LinearRing>
                        <coordinates>-96.75857,32.71785,120.31976147585817 -96.75857,32.71785,185.31976147585817 -96.75935,32.7258,185.31976147585817 -96.75935,32.7258,120.31976147585817</coordinates>
                      </LinearRing>
                    </outerBoundaryIs>
                  </Polygon>
                </MultiGeometry>
              </Placemark>
            </Folder>
          </Folder>
          <Folder>
            <name>E71: uss1_dss astm.f3548.v21.dss.queryOperationalIntentReferences</name>
            <Placemark>
              <name>area_of_interest</name>
              <styleUrl>#QueryArea</styleUrl>
              <description><![CDATA[<ul><li>uss2's Activated 9f80c0ec-902f-4ebd-a98d-a0139e0303e0[2]</li><li>uss6's Accepted f21e8ed0-e8b0-4d31-9c8a-a60e1581f3cd[2]</li></ul>]]></description>
              <TimeSpan>
                <begin>2026-05-21T14:56:56.351274+00:00</begin>
                <end>2026-05-21T15:41:56.351274+00:00</end>
              </TimeSpan>
              <MultiGeometry>
                <Polygon>
                  <altitudeMode>absolute</altitudeMode>
                  <outerBoundaryIs>
                    <LinearRing>
                      <coordinates>-96.76905000000001,32.71379,120.32708258517631 -96.76905000000001,32.7258,120.32708258517631 -96.75554000000001,32.7258,120.32708258517631 -96.75554000000001,32.71379,120.32708258517631</coordinates>
                    </LinearRing>
                  </outerBoundaryIs>
                </Polygon>
                <Polygon>
                  <altitudeMode>absolute</altitudeMode>
                  <outerBoundaryIs>
                    <LinearRing>
                      <coordinates>-96.76905000000001,32.71379,185.3270825851763 -96.76905000000001,32.7258,185.3270825851763 -96.75554000000001,32.7258,185.3270825851763 -96.75554000000001,32.71379,185.3270825851763</coordinates>
                    </LinearRing>
                  </outerBoundaryIs>
                </Polygon>
                <Polygon>
                  <altitudeMode>absolute</altitudeMode>
                  <outerBoundaryIs>
                    <LinearRing>
                      <coordinates>-96.76905000000001,32.71379,120.32708258517631 -96.76905000000001,32.71379,185.3270825851763 -96.76905000000001,32.7258,185.3270825851763 -96.76905000000001,32.7258,120.32708258517631</coordinates>
                    </LinearRing>
                  </outerBoundaryIs>
                </Polygon>
                <Polygon>
                  <altitudeMode>absolute</altitudeMode>
                  <outerBoundaryIs>
                    <LinearRing>
                      <coordinates>-96.76905000000001,32.7258,120.32708258517631 -96.76905000000001,32.7258,185.3270825851763 -96.75554000000001,32.7258,185.3270825851763 -96.75554000000001,32.7258,120.32708258517631</coordinates>
                    </LinearRing>
                  </outerBoundaryIs>
                </Polygon>
                <Polygon>
                  <altitudeMode>absolute</altitudeMode>
                  <outerBoundaryIs>
                    <LinearRing>
                      <coordinates>-96.75554000000001,32.7258,120.32708258517631 -96.75554000000001,32.7258,185.3270825851763 -96.75554000000001,32.71379,185.3270825851763 -96.75554000000001,32.71379,120.32708258517631</coordinates>
                    </LinearRing>
                  </outerBoundaryIs>
                </Polygon>
                <Polygon>
                  <altitudeMode>absolute</altitudeMode>
                  <outerBoundaryIs>
                    <LinearRing>
                      <coordinates>-96.75554000000001,32.71379,120.32708258517631 -96.75554000000001,32.71379,185.3270825851763 -96.76905000000001,32.71379,185.3270825851763 -96.76905000000001,32.71379,120.32708258517631</coordinates>
                    </LinearRing>
                  </outerBoundaryIs>
                </Polygon>
              </MultiGeometry>
            </Placemark>
          </Folder>
          <Folder>
            <name>E75: mock_uss astm.f3548.v21.uss.getOperationalIntentDetails</name>
            <Folder>
              <name>uss6's P0 Accepted f21e8ed0-e8b0-4d31-9c8a-a60e1581f3cd[2] @ XICVh-eZkFoQ8xvA5wL59O3VB1IH3s31FnZjaZ0GtJY_</name>
              <Placemark>
                <name>Nominal volume 0</name>
                <styleUrl>#F3548v21Accepted</styleUrl>
                <TimeSpan>
                  <begin>2026-05-21T14:56:57.383039+00:00</begin>
                  <end>2026-05-21T15:41:56.351274+00:00</end>
                </TimeSpan>
                <MultiGeometry>
                  <Polygon>
                    <altitudeMode>absolute</altitudeMode>
                    <outerBoundaryIs>
                      <LinearRing>
                        <coordinates>-96.75935,32.7258,120.31976147585817 -96.75554000000001,32.72406,120.31976147585817 -96.75811,32.71379,120.31976147585817 -96.76905000000001,32.72563,120.31976147585817 -96.75857,32.71785,120.31976147585817</coordinates>
                      </LinearRing>
                    </outerBoundaryIs>
                  </Polygon>
                  <Polygon>
                    <altitudeMode>absolute</altitudeMode>
                    <outerBoundaryIs>
                      <LinearRing>
                        <coordinates>-96.75935,32.7258,185.31976147585817 -96.75554000000001,32.72406,185.31976147585817 -96.75811,32.71379,185.31976147585817 -96.76905000000001,32.72563,185.31976147585817 -96.75857,32.71785,185.31976147585817</coordinates>
                      </LinearRing>
                    </outerBoundaryIs>
                  </Polygon>
                  <Polygon>
                    <altitudeMode>absolute</altitudeMode>
                    <outerBoundaryIs>
                      <LinearRing>
                        <coordinates>-96.75935,32.7258,120.31976147585817 -96.75935,32.7258,185.31976147585817 -96.75554000000001,32.72406,185.31976147585817 -96.75554000000001,32.72406,120.31976147585817</coordinates>
                      </LinearRing>
                    </outerBoundaryIs>
                  </Polygon>
                  <Polygon>
                    <altitudeMode>absolute</altitudeMode>
                    <outerBoundaryIs>
                      <LinearRing>
                        <coordinates>-96.75554000000001,32.72406,120.31976147585817 -96.75554000000001,32.72406,185.31976147585817 -96.75811,32.71379,185.31976147585817 -96.75811,32.71379,120.31976147585817</coordinates>
                      </LinearRing>
                    </outerBoundaryIs>
                  </Polygon>
                  <Polygon>
                    <altitudeMode>absolute</altitudeMode>
                    <outerBoundaryIs>
                      <LinearRing>
                        <coordinates>-96.75811,32.71379,120.31976147585817 -96.75811,32.71379,185.31976147585817 -96.76905000000001,32.72563,185.31976147585817 -96.76905000000001,32.72563,120.31976147585817</coordinates>
                      </LinearRing>
                    </outerBoundaryIs>
                  </Polygon>
                  <Polygon>
                    <altitudeMode>absolute</altitudeMode>
                    <outerBoundaryIs>
                      <LinearRing>
                        <coordinates>-96.76905000000001,32.72563,120.31976147585817 -96.76905000000001,32.72563,185.31976147585817 -96.75857,32.71785,185.31976147585817 -96.75857,32.71785,120.31976147585817</coordinates>
                      </LinearRing>
                    </outerBoundaryIs>
                  </Polygon>
                  <Polygon>
                    <altitudeMode>absolute</altitudeMode>
                    <outerBoundaryIs>
                      <LinearRing>
                        <coordinates>-96.75857,32.71785,120.31976147585817 -96.75857,32.71785,185.31976147585817 -96.75935,32.7258,185.31976147585817 -96.75935,32.7258,120.31976147585817</coordinates>
                      </LinearRing>
                    </outerBoundaryIs>
                  </Polygon>
                </MultiGeometry>
              </Placemark>
            </Folder>
          </Folder>
        </Folder>
        <Folder>
          <name>Validate Flight 2 notification received by tested_uss</name>
        </Folder>
      </Folder>
      <Folder>
        <name/>
        <Folder>
          <name>Cleanup</name>
        </Folder>
      </Folder>
    </Folder>
  </Document>
</kml>
